First Name,Last Name,Company Name,Phone,Email,Address,City,State,Postal Code,Website,Tags
Rubens,Mobile Rv Services,Ruben's Mobile RV Services,+15804787055,,2065 E Farm to Market Rd 544,Wylie,TX,75098.0,https://rubensmobilervservice.square.site/,"heavy-equipment-campaign,human-led-ai,dfw"
205,Diesel Repair,205 Diesel Repair,+19034401620,service@205diesel.com,1611 State Hwy 276,Rockwall,TX,75032.0,https://www.205diesel.com/,"heavy-equipment-campaign,human-led-ai,dfw"
Ken,Winn The Tool Man Mobile Rv Repairs,Ken Winn the Tool Man Mobile RV Repairs,+19033404382,kenwinnthetoolman@gmail.com,11211 Prairie Lakes Ln,Forney,TX,75126.0,https://kenwinnthetoolman.online/,"heavy-equipment-campaign,human-led-ai,dfw"
Ken,Winn The Tool Man Mobile Rv Repairs,Ken Winn the Tool Man Mobile RV Repairs,+19033404382,micah@micahrich.com,11211 Prairie Lakes Ln,Forney,TX,75126.0,https://kenwinnthetoolman.online/,"heavy-equipment-campaign,human-led-ai,dfw"
Mg,Mobile Rv Repair,MG mobile RV repair,+14694633201,mai9026@gmail.com,2405 Hamilton Ln,Nevada,TX,75173.0,https://mgmobilervrepair.com/,"heavy-equipment-campaign,human-led-ai,dfw"
Ferguson,Equipment Repair Group,Ferguson Equipment Repair Group LLC,+13462186993,service@fergusonequipmentrepairgroup.com,12669 Robin Ln,Willis,TX,77378.0,https://fergrepair.com/%3Futm_source%3DGMB,"heavy-equipment-campaign,human-led-ai,dfw"
Ferguson,Equipment Repair Group,Ferguson Equipment Repair Group LLC,+13462186993,service@fergrepair.com,12669 Robin Ln,Willis,TX,77378.0,https://fergrepair.com/%3Futm_source%3DGMB,"heavy-equipment-campaign,human-led-ai,dfw"
Forrest,Mobile Small Engine Repair,FoRRest Mobile Small Engine Repair LLC,+12144066105,fsermobile@gmail.com,1210 Bayshore Dr,Rockwall,TX,75087.0,http://fsermobile.com/,"heavy-equipment-campaign,human-led-ai,dfw"
Triple,M Heating And Air Solutions,Triple M Heating & Air Solutions LLC,+14692681493,triplemhvacsolutions@gmail.com,,,,,https://www.triplemairsolutions.com/,"heavy-equipment-campaign,human-led-ai,dfw"
Mikes,Mobile Garage,Mike's Mobile Garage,+19034221274,mike@mikesmobilerepairtx.com,2109 Auburndale Ave,Melissa,TX,75454.0,http://www.mikesmobilerepairtx.com/,"heavy-equipment-campaign,human-led-ai,dfw"
First,Response Mobile Trailer Repair,First Response Mobile Trailer Repair,+14699700462,,,,,,https://www.firstresponsetrailer.com/,"heavy-equipment-campaign,human-led-ai,dfw"
On,Target Mobile Repair,On Target Mobile Repair LLC,+14698971241,ontargetmobilerepair@gmail.com,,,,,https://www.ontargetmobilerepair.com/,"heavy-equipment-campaign,human-led-ai,dfw"
On,Target Mobile Repair,On Target Mobile Repair LLC,+14698971241,info@ontargetmobilerepair.com,,,,,https://www.ontargetmobilerepair.com/,"heavy-equipment-campaign,human-led-ai,dfw"
Truck,Repair Expert,Truck Repair Expert,+12144632961,contact@truckrepairexpert.com,2515 Chene Dr,Sachse,TX,75048.0,https://truckrepairexpert.com/diesel-mechanic-sachse-tx/,"heavy-equipment-campaign,human-led-ai,dfw"
Medical,Equipment Repair,Medical Equipment Repair,+12143254349,info@repairprousa.com,201 W Boyd Dr Ste 105C,Allen,TX,75013.0,http://www.repairprousa.com/,"heavy-equipment-campaign,human-led-ai,dfw"
Honest,Mobile Mechanics,HONEST MOBILE MECHANICS,+16156427461,,Grassland Dr,Royse City,TX,75189.0,,"heavy-equipment-campaign,human-led-ai,dfw"
Hare,Heavy Equipment Services,Hare Heavy Equipment Services,+19038699058,,Memorial Pkwy,Fate,TX,75189.0,http://hareservices.net/,"heavy-equipment-campaign,human-led-ai,dfw"
Dfw,Truck Repair,DFW Truck Repair,+19403912562,,"3177, Unit 4A I-30",Caddo Mills,TX,75135.0,,"heavy-equipment-campaign,human-led-ai,dfw"
Casebolt,Mobile Rv,Casebolt Mobile RV,+14694505983,,2510 Baylor Dr,Rowlett,TX,75088.0,,"heavy-equipment-campaign,human-led-ai,dfw"
Proline,Equipment,ProLine Equipment,+14698653662,,,,,,,"heavy-equipment-campaign,human-led-ai,dfw"
Nb,Truck And Trailer Repair,NB TRUCK AND TRAILER REPAIR,+14699616497,,,,,,,"heavy-equipment-campaign,human-led-ai,dfw"
Wylie,Truck And Trailer Repair,Wylie Truck & Trailer Repair,+14699013474,,1901 N State Hwy 78,Wylie,TX,75098.0,,"heavy-equipment-campaign,human-led-ai,dfw"
Riley,Equipment Service,Riley Equipment Service LLC,+12145421321,hi@typemade.mx,13653 Hollow Creek Dr,Forney,TX,75126.0,http://rileyequipmentservice.com/,"heavy-equipment-campaign,human-led-ai,dfw"
Riley,Equipment Service,Riley Equipment Service LLC,+12145421321,dave@lab6.com,13653 Hollow Creek Dr,Forney,TX,75126.0,http://rileyequipmentservice.com/,"heavy-equipment-campaign,human-led-ai,dfw"
Iron,Hub Field Solutions,Iron Hub Field Solutions,+16822498097,rental@iron-hub.com,5711 I-30 B,Royse City,TX,75189.0,https://www.iron-hub.com/,"heavy-equipment-campaign,human-led-ai,dfw"
Iron,Hub Field Solutions,Iron Hub Field Solutions,+16822498097,service@iron-hub.com,5711 I-30 B,Royse City,TX,75189.0,https://www.iron-hub.com/,"heavy-equipment-campaign,human-led-ai,dfw"
Iron,Hub Field Solutions,Iron Hub Field Solutions,+16822498097,sales@iron-hub.com,5711 I-30 B,Royse City,TX,75189.0,https://www.iron-hub.com/,"heavy-equipment-campaign,human-led-ai,dfw"
Dalrock,Equipment And Trucks,"Dalrock Equipment and Trucks, LLC",+18175044537,,520 S Houston St,Royse City,TX,75189.0,,"heavy-equipment-campaign,human-led-ai,dfw"
Equipment,Services,Equipment Services,+19727044153,,3121 US-69,Greenville,TX,75401.0,,"heavy-equipment-campaign,human-led-ai,dfw"
Martin,Mobile Service,"Martin Mobile Service, LLC",+19725524886,dwayne@martinmobileservice.com,576 Sabine Creek Rd suite 7,Royse City,TX,75189.0,http://martinmobileservice.com/,"heavy-equipment-campaign,human-led-ai,dfw"
Mobility,Medic,Mobility Medic,+12147718470,mobilitymedic2@gmail.com,,,,,https://facebook.com/mobilitymedicdfw,"heavy-equipment-campaign,human-led-ai,dfw"
Utility,Equipment Technology,Utility Equipment Technology Inc,+19727718958,office@utilityequipmenttechnology.com,382 Stevens Rd,Rockwall,TX,75032.0,http://utilityequipmenttechnology.com/,"heavy-equipment-campaign,human-led-ai,dfw"
Eco,Heavy Equipment Onsite Service And Repair,ECO Heavy Equipment Onsite Service & Repair LLC,+16824980505,ecoheavyequipment@gmail.com,600 Harbour Town Dr,Lake Dallas,TX,75065.0,https://ecoheavyequipmentrepair.com/,"heavy-equipment-campaign,human-led-ai,dfw"
Mobile,Diesel Truck Repair,Mobile Diesel Truck Repair,+12143938482,contact@mobiledieseltruckrepair.net,327 Highland Ridge Dr,Wylie,TX,75098.0,https://mobiledieseltruckrepair.net/service-areas/wylie-tx/,"heavy-equipment-campaign,human-led-ai,dfw"
Gables,Mobile Garage,Gables Mobile Garage,+19033318736,,,,,,,"heavy-equipment-campaign,human-led-ai,dfw"
Dalrock,Equipment And Trucks,"Dalrock Equipment and Trucks, LLC",+12142956753,shawn@dalrockge.com,500 Turtle Cove Blvd,Rockwall,TX,75087.0,http://www.dalrocket.com/,"heavy-equipment-campaign,human-led-ai,dfw"
Dalrock,Equipment And Trucks,"Dalrock Equipment and Trucks, LLC",+12142956753,kendra@dalrocket.com,500 Turtle Cove Blvd,Rockwall,TX,75087.0,http://www.dalrocket.com/,"heavy-equipment-campaign,human-led-ai,dfw"
Dalrock,Equipment And Trucks,"Dalrock Equipment and Trucks, LLC",+12142956753,shawn@dalrocket.com,500 Turtle Cove Blvd,Rockwall,TX,75087.0,http://www.dalrocket.com/,"heavy-equipment-campaign,human-led-ai,dfw"
