First Name,Last Name,Phone,Email,Company Name,City,State,Website,Tags
,,4699751679,seth@totalgaragesolutions.com,,,,http://totalgaragesolutions.com/%3Futm_source%3Dgoogle-gmb-maps%26utm_medium%3Dgmb-website-button%26utm_campaign%3Dlocl.io%26utm_content%3D98615449-89f6-420c-80f7-3ec143e451a0,
,,9722656378,,,McKinney,Texas,https://callwelborngarage.com/garage-door-repair-mckinney/,
,,4697078789,,,,,https://trustygaragedoors.com/%3Futm_source%3DGBP%26utm_medium%3Dorganic%26utm_campaign%3Doffice,
,,4692728847,,,Allen,Texas,https://imperialgaragedoorrepair.com/,
,,2146246348,,,Plano,Texas,https://www.trustygaragerepair.com/,
,,9086275226,,,Edison,New Jersey,https://overheadgaragedoorsnj.com/,
,,9034145179,,,Van Alstyne,Texas,http://www.epoverheaddoors.com/,
,,4694302094,,,Frisco,Texas,https://garagetec.org/frisco-tx/,
,,4693892010,,,Rockwall,Texas,https://yourgdguys.com/,
,,4693737439,,,McKinney,Texas,https://www.anytimegaragedoor.com/service-areas/dallas-tx-garage-door-repair,
,,9723470719,,,McKinney,Texas,https://veterangaragedoor.com/our-service-area/garage-door-repair-mckinney-tx/,
,,2144423240,,,,,https://www.garagedoorsmckinneytexas.com/,
,,9728460508,,,Plano,Texas,https://www.actiongaragedoor.com/%3Futm_campaign%3Dgmb,
,,2143902840,,,Celina,Texas,https://reliablegaragedoorrepair.com/%3Futm_source%3Dgooglemb%26utm_medium%3Dorganic%26utm_campaign%3Dweblink%26utm_content%3Dhome,
,,9725296900,,,McKinney,Texas,https://www.premiumgaragedoorrepair.net/%3Futm_campaign%3Dgoogle%26utm_medium%3Dlocal%26utm_source%3Dgoogle_business_profile,
,,9728000308,,,Plano,Texas,https://savvygaragedoor.com/,
,,2018939634,,,North Bergen,New Jersey,https://closing-masters.com/,
,,2017941234,,,Elmwood Park,New Jersey,http://www.doorworks.com/,
,,2147332371,,,McKinney,Texas,http://mckinneydoors.com/,
,,9086241234,,,Hillside,New Jersey,http://www.njdoorworks.com/,
,,4696787998,,,McKinney,Texas,http://doorcraftgaragedoors.com/,
,,4695518279,,,Lavon,Texas,https://www.americanoverheadgaragedoorrepair.com/,
,,9728775774,,,Plano,Texas,https://www.repairgaragedoors.com/,
,,9726323010,,,McKinney,Texas,https://garagetec.org/mckinney-tx/,
,,2013121352,,,Paterson,New Jersey,https://mjunitedgaragedoor.com/,
,,4698093059,,,,,http://garagedoorrepairfriscotexas.com/,
,,9089262788,,,,,https://ontraknj.com/,
,,9728535400,,,Princeton,Texas,https://garagedoorsprinceton.com/,
,,9035056445,,,Van Alstyne,Texas,https://premiumgaragedoorrepair.net/van-alstyne/%3Futm_campaign%3Dgoogle%26utm_medium%3Dorganic%26utm_source%3Dgoogle_business_profile,
,,4696942469,,,Anna,Texas,http://annatxgaragedoor.com/,
,,9728000778,,,Wylie,Texas,http://www.ntxdoor.com/,
,,4695450453,,,Anna,Texas,https://www.axisgaragedoorstx.com/,
,,9083334800,,,Clark,New Jersey,https://garagedoorsclark.com/,
,,9737481110,,,Bloomfield,New Jersey,http://skillmandoors.com/,
,,9727713134,,,Rockwall,Texas,http://rockwallgaragedoor.com/,
,,9727369854,,,Celina,Texas,https://www.supremegaragedoortx.com/garage-door-repair-celina-tx/,
,,4699566391,,,Blue Ridge,Texas,https://imperialgaragedoorrepair.com/garage-door-repair-blue-ridge-tx/,
,,9728330050,,,Farmersville,Texas,https://farmersvillegaragedoors.com/,
,,9738603001,,,Bloomfield,New Jersey,http://bloomfieldoverheaddoorrepair.com/,
,,4693424424,,,Allen,Texas,https://dallasdoors.com/the-overhead-door-company-of-collin-county/,
,,9032742414,,,,,https://guardiangaragedoor.com/,
,,2017401100,,,Jersey City,New Jersey,https://jerseycityoverheaddoors.com/,
,,2147330575,,,,,http://farmersvilleohd.com/,
,,9734714060,,,Lodi,New Jersey,http://www.loadingdock.com/,
,,6092158753,,,Pennington,New Jersey,,
,,5513602343,,,North Bergen,New Jersey,,
,,2015349111,,,Edgewater,New Jersey,,
,,9085605955,,,Elizabeth,New Jersey,,
,,2016540055,,,Fort Lee,New Jersey,,
,,4698858106,,Garage Door Heroes,,,https://garagedoor-heroes.com/,
,,8564206435,,Clark NJ Garage Doâ€™or Repair Rex Handyman,Clark,New Jersey,,
,,2012001048,,Hudson Rollup Door & Iron Work,Jersey City,New Jersey,,
