First Name,Last Name,Phone,Email,Company Name,City,State,Website,Tags
,,6824980505,ecoheavyequipment@gmail.com,,Lake Dallas,Texas,https://ecoheavyequipmentrepair.com/,
,,9403912562,,,Caddo Mills,Texas,,
,,2144632961,contact@truckrepairexpert.com,,Sachse,Texas,https://truckrepairexpert.com/diesel-mechanic-sachse-tx/,
,,3462186993,service@fergrepair.com,,Willis,Texas,https://fergrepair.com/%3Futm_source%3DGMB,
,,9034401620,service@205diesel.com,,Rockwall,Texas,https://www.205diesel.com/,
,,4699616497,,,,,,
,,8175044537,,,Royse City,Texas,,
,,2142956753,shawn@dalrockge.com,,Rockwall,Texas,http://www.dalrocket.com/,
,,6822498097,sales@iron-hub.com,,Royse City,Texas,https://www.iron-hub.com/,
,,9038699058,,,Fate,Texas,http://hareservices.net/,
,,4699013474,,,Wylie,Texas,,
,,2144066105,fsermobile@gmail.com,forrest mobile small engine repair,Rockwall,Texas,http://fsermobile.com/,
,,9727718958,office@utilityequipmenttechnology.com,,Rockwall,Texas,http://utilityequipmenttechnology.com/,
,,2143938482,contact@mobiledieseltruckrepair.net,mobile diesel truck repair,Wylie,Texas,https://mobiledieseltruckrepair.net/service-areas/wylie-tx/,
,,9033318736,,,,,,
,,2147718470,mobilitymedic2@gmail.com,,,,https://facebook.com/mobilitymedicdfw,
,,4698971241,info@ontargetmobilerepair.com,,,,https://www.ontargetmobilerepair.com/,
,,9034221274,mike@mikesmobilerepairtx.com,mikes mobile garage,Melissa,Texas,http://www.mikesmobilerepairtx.com/,
,,5804787055,,,Wylie,Texas,https://rubensmobilervservice.square.site/,
,,9727044153,,,Greenville,Texas,,
,,4699700462,,,,,https://www.firstresponsetrailer.com/,
,,9725524886,dwayne@martinmobileservice.com,,Royse City,Texas,http://martinmobileservice.com/,
,,6156427461,,,Royse City,Texas,,
,,2143254349,info@repairprousa.com,,Allen,Texas,http://www.repairprousa.com/,
,,4694633201,mai9026@gmail.com,,Nevada,Texas,https://mgmobilervrepair.com/,
,,9033404382,micah@micahrich.com,ken winn the tool man,Forney,Texas,https://kenwinnthetoolman.online/,
,,4694505983,,,Rowlett,Texas,,
,,4698653662,,,,,,
,,2145421321,hi@typemade.mx,,Forney,Texas,http://rileyequipmentservice.com/,
,,4692681493,triplemhvacsolutions@gmail.com,,,,https://www.triplemairsolutions.com/,
