First Name,Last Name,Phone,Email,Company Name,City,State,Website,Tags,line_type,carrier,lookup_status
,,8179912291,contact@getrestorationdfw.com,Get,,,http://www.getrestorationdfw.com/,"mobile-verified,mobile-verified",mobile,T-Mobile USA,success
Kendrick,,4699097055,cdfw@pauldavis.com,Paul Davis Restoration Central DFW,,,https://centraldfw.pauldavis.com/,"mobile-verified,mobile-verified",mobile,Verizon Wireless,success
,,4698857663,,New Armor,,,https://www.newarmorrestoration.com/,"mobile-verified,mobile-verified",mobile,T-Mobile USA,success
,,2144635880,,SERVPRO of Southwest Dallas,,,https://www.servpro.com/locations/tx/servpro-of-southwest-dallas?utm_medium=organic&utm_source=gbp,"mobile-verified,mobile-verified",mobile,AT&T Wireless,success
,,9453016446,office@redbirdresto.com,Red Bird Restoration LLC,,,https://redbirdresto.com/,"mobile-verified,mobile-verified",mobile,Verizon Wireless,success
Meet,,9722178245,webmaster@911restoration.com,911 Restoration of Dallas,,,https://www.911restorationdallas.com/?utm_source=google&utm_medium=organic&utm_campaign=gmb,"mobile-verified,mobile-verified",mobile,Onvoy,success
,,2148097350,,MRC Water Restoration + Construction,,,http://mrcusa.com/,"mobile-verified,mobile-verified",mobile,AT&T Wireless,success
Commercial,,4693982841,,911 Restoration of East Dallas,,,https://911restorationeastdallas.com/,"mobile-verified,mobile-verified",mobile,Onvoy,success
,,8179733996,,SERVPRO of Southwest Fort Worth,,,https://www.servpro.com/locations/tx/servpro-of-southwest-fort-worth?utm_medium=organic&utm_source=gbp,"mobile-verified,mobile-verified",mobile,Onvoy,success
,,8177094188,mvprestoration858@gmail.com,MVP Restorations,,,https://mvprestorationdfw.com/?utm_source=omg-gbp&utm_medium=webclick,"mobile-verified,mobile-verified",mobile,AT&T Wireless,success
,,8172323333,,SERVPRO of North Fort Worth,,,https://www.servpro.com/locations/tx/servpro-of-north-fort-worth?utm_medium=organic&utm_source=gbp,"mobile-verified,mobile-verified",mobile,Verizon Wireless,success
,,8179736350,,SERVPRO of Lake Arlington,,,https://www.servpro.com/locations/tx/servpro-of-lake-arlington?utm_medium=organic&utm_source=gbp,"mobile-verified,mobile-verified",mobile,Onvoy,success
,,8179734106,,SERVPRO of Downtown Fort Worth / Team Nicholson,,,https://www.servpro.com/locations/tx/servpro-of-downtown-fort-worth-team-nicholson?utm_medium=organic&utm_source=gbp,"mobile-verified,mobile-verified",mobile,Onvoy,success
,,6828086569,,"SERVPRO of South Central Fort Worth, Edgecliff Village",,,https://www.servpro.com/locations/tx/servpro-of-south-central-fort-worth-edgecliff-village?utm_medium=organic&utm_source=gbp,"mobile-verified,mobile-verified",mobile,Onvoy,success
To,,6822190320,,Jenkins Restorations,,,https://jenkinsrestorations.com/dallas-texas/?utm_source=Google+my+Business&utm_medium=Organic+Search&utm_campaign=GMB+Dallas,"mobile-verified,mobile-verified",mobile,Onvoy,success
,,8179194686,,Perfect Timing Restoration,,,http://perfecttimingrestoration.com/,"mobile-verified,mobile-verified",mobile,AT&T Wireless,success
,,8176728306,,The Flood Pros Forth Worth,,,,"mobile-verified,mobile-verified",mobile,Onvoy,success
,,8178294708,,LCS Cleaning Concepts,,,https://lcscleaningconcepts.com/,"mobile-verified,mobile-verified",mobile,AT&T Wireless,success
Expertise,,8174202002,,Rainbow International,,,https://www.rainbowrestores.com/,"mobile-verified,mobile-verified",mobile,AT&T Wireless,success
,,8172052838,,Share Restoration,,,https://sharerestoration.com/pages/water-damage-restoration-fort-worth,"mobile-verified,mobile-verified",mobile,AT&T Wireless,success
,,8173577778,,TACT Fort Worth Trauma And Casualty Team,,,https://tactfortworth.com/,"mobile-verified,mobile-verified",mobile,AT&T Wireless,success
,,2819300100,,DryMore,,,https://drymoremoldremoval.com/,"mobile-verified,mobile-verified",mobile,Verizon Wireless,success
,,8323498054,info@rapidremediationllc.com,Rapid Remediation,,,https://rapidremediationllc.com/,"mobile-verified,mobile-verified",mobile,Verizon Wireless,success
Our,,7133937077,assured@assuredrestoration.com,Assured Restoration and Remodeling,,,https://www.assuredrestoration.com/,"mobile-verified,mobile-verified",mobile,Verizon Wireless,success
With,,8328056391,Info@oneplusrestore.com,One Plus LLC,,,http://www.oneplusrestore.com/,"mobile-verified,mobile-verified",mobile,T-Mobile USA,success
,,7134898089,,Rapid Response Remediation,,,https://rapidresponse-remediation.com/services-areas/katy-tx/,"mobile-verified,mobile-verified",mobile,Verizon Wireless,success
,,2813056903,,911 Restoration of Southern Houston,,,https://www.911restorationsouthernhouston.com/,"mobile-verified,mobile-verified",mobile,Onvoy,success
,,2815919891,,Rescue Brothers Water Damage and Fire Restoration,,,http://rescuebrotherswaterdamageandfirerestoration.site/,"mobile-verified,mobile-verified",mobile,Onvoy,success
,,2817311428,,All Dry Services of SW Houston,,,https://www.myalldry.com/sw-houston-texas/,"mobile-verified,mobile-verified",mobile,AT&T Wireless,success
,,2816992366,,911 Restoration of Northern Houston,,,https://www.911restorationnorthernhouston.com/,"mobile-verified,mobile-verified",mobile,Onvoy,success
,,2814692957,,SERVPRO of Cypress,,,https://www.servpro.com/locations/tx/servpro-of-cypress?utm_medium=organic&utm_source=gbp,"mobile-verified,mobile-verified",mobile,Onvoy,success
,,8322806238,,Elite Disaster Restoration,,,http://www.elitedisasterrestoration.com/houston-water-restoration,"mobile-verified,mobile-verified",mobile,EZ Texting/2 - Sinch,success
,,2102182235,recoverysolutions.tx@gmail.com,Recovery Solutions,,,https://www.recoverysolutionstx.com/,"mobile-verified,mobile-verified",mobile,AT&T Wireless,success
From,,2103308454,info@floodprowaterdamage.com,Flood Pro Restoration,,,https://www.floodprorestoration.com/,"mobile-verified,mobile-verified",mobile,AT&T Wireless,success
Helping,,2104522637,help@cancowr.com,Canco Water,,,http://www.cancowr.com/,"mobile-verified,mobile-verified",mobile,AT&T Wireless,success
,,2108589696,,SERVPRO of Stone Oak,,,https://www.servpro.com/locations/tx/servpro-of-stone-oak?utm_medium=organic&utm_source=gbp,"mobile-verified,mobile-verified",mobile,Verizon Wireless,success
To,,2109990388,,RestoPros of Northwest San Antonio,,,https://www.restopros.co/tx-san-antonio-boerne,"mobile-verified,mobile-verified",mobile,AT&T Wireless,success
,,2107408686,,Infinity Water Restoration,,,https://infinitywaterrestoration.com/,"mobile-verified,mobile-verified",mobile,Verizon Wireless,success
Heath,,2106563469,customerservice@ptr247.com,PrimeTime Restoration,,,https://www.ptr247.com/?utm_source=Google&utm_medium=google&utm_campaign=gmb&utm_id=GMB,"mobile-verified,mobile-verified",mobile,Onvoy,success
,,2102430724,,SERVPRO of Downtown San Antonio/Team Friermuth,,,https://www.servpro.com/locations/tx/servpro-of-downtown-san-antonio-team-friermuth?utm_medium=organic&utm_source=gbp,"mobile-verified,mobile-verified",mobile,Onvoy,success
,,2108991017,,SERVPRO of North Central San Antonio,,,https://www.servpro.com/locations/tx/servpro-of-north-central-san-antonio?utm_medium=organic&utm_source=gbp,"mobile-verified,mobile-verified",mobile,Onvoy,success
,,2104736061,,Best Option Restoration of West San Antonio,,,https://bestoptionrestoration.com/locations/west-san-antonio/,"mobile-verified,mobile-verified",mobile,AT&T Wireless,success
,,8303602600,,WTR Restoration,,,https://www.wtrrestoration.com/,"mobile-verified,mobile-verified",mobile,T-Mobile USA,success
For,,2105707877,,911 Restoration of San Antonio,,,https://911restorationsanantonio.com/,"mobile-verified,mobile-verified",mobile,Onvoy,success
,,5126988444,,Total Restoration of Texas,,,https://trtexas.com/?utm_source=google&utm_medium=organic&utm_campaign=gmb,"mobile-verified,mobile-verified",mobile,AT&T Wireless,success
,,7374087885,,Titan Water Damage Austin,,,https://titanwaterdamageaustin.com/,"mobile-verified,mobile-verified",mobile,Verizon Wireless,success
,,5125477746,,Voda Cleaning & Restoration of West Austin,,,https://myvoda.com/west-austin-tx/?utm_source=google&utm_medium=organic&utm_campaign=gmb,"mobile-verified,mobile-verified",mobile,AT&T Wireless,success
Orduz,,9452438816,info@domumss.com,DOM Solutions,,,http://domstaffing.com/,"mobile-verified,mobile-verified",mobile,T-Mobile USA,success
Restoration,,7379317815,,Taylor Restoration Services,,,https://taylorrestorationservices.com/,"mobile-verified,mobile-verified",mobile,Verizon Wireless,success
Richards,,5126866653,,Round Rock Water Damage Restoration Co.,,,https://waterdamageroundrocktx.com/flood-cleanup-738681,"mobile-verified,mobile-verified",mobile,Onvoy,success
,,5125775216,,Flood Restoration Services,,,https://www.floodrestor.com/,"mobile-verified,mobile-verified",mobile,T-Mobile USA,success
,,5125221858,restoration5000@gmail.COM,Chrome Water Damage Experts,,,https://chromewaterdamage.com/,"mobile-verified,mobile-verified",mobile,Verizon Wireless,success
,,9159991066,,Complete Fire & Water Restoration,,,https://www.complete24hour.com/?utm_source=gmb&utm_medium=organic&utm_campaign=elpaso,"mobile-verified,mobile-verified",mobile,AT&T Wireless,success
,,9155903434,,Lion Stop Loss Cleaning & Restoration,,,,"mobile-verified,mobile-verified",mobile,Verizon Wireless,success
,,9155814347,,Althouse,,,http://www.althouserestore.com/,"mobile-verified,mobile-verified",mobile,Onvoy,success
,,9153308151,,Restoration Heroes of Texas,,,https://www.heroeseptx.com/,"mobile-verified,mobile-verified",mobile,Verizon Wireless,success
,,9154918818,,ServiceMaster Water Removal El Paso,,,,"mobile-verified,mobile-verified",mobile,Verizon Wireless,success
,,9152288137,,DM&J Landscaping El Paso,,,,"mobile-verified,mobile-verified",mobile,Verizon Wireless,success
,,9152748330,arturo@skycustomconstruction.com,Sky Custom Construction,,,http://skycustomconstruction.com/,"mobile-verified,mobile-verified",mobile,T-Mobile USA,success
,,9152065906,junebarraza94@gmail.com,El Paso Mold Specialists,,,http://elpasomoldremovalservice.com/,"mobile-verified,mobile-verified",mobile,Onvoy,success
,,9156379221,,Redline Carpet Cleaning Specialists & 24 Hour Water Extraction,,,https://www.carpetcleaningcompanyelpaso.com/,"mobile-verified,mobile-verified",mobile,Verizon Wireless,success
,,9153041461,,Reliable Construction & restoration,,,https://reliableconstruct.com/contact-us,"mobile-verified,mobile-verified",mobile,Verizon Wireless,success
,,9155912901,SteamWizardEP@gmail.com,Steam Wizard,,,https://www.steamwizardep.com/,"mobile-verified,mobile-verified",mobile,T-Mobile USA,success
,,9153550215,,Premier Home Updates,,,https://premierhomeupdates.com/,"mobile-verified,mobile-verified",mobile,Verizon Wireless,success
,,9155912905,,Stanley Steemer,,,https://www.stanleysteemer.com/locations/TX/El-Paso/1036,"mobile-verified,mobile-verified",mobile,Onvoy,success
,,9154784134,,Ram Janitorial Services LLC,,,,"mobile-verified,mobile-verified",mobile,Verizon Wireless,success
,,9153048619,rafael@onsiteautoreconditioning.com,On Site Auto Reconditioning,,,https://onsiteautoreconditioning.com/,"mobile-verified,mobile-verified",mobile,T-Mobile USA,success
,,9152267159,,Empire Dent & Body,,,http://www.empiredentbody.com/,"mobile-verified,mobile-verified",mobile,Onvoy,success
,,9157779030,,Heroes Roofing & Construction LLC,,,https://www.heroeseptx.com/book-appointment,"mobile-verified,mobile-verified",mobile,Verizon Wireless,success
,,9157400575,,colorworks,,,,"mobile-verified,mobile-verified",mobile,AT&T Wireless,success
From,,9153559900,moyremodeling@yahoo.com,Moy Construction & Remodeling LLC,,,http://www.moyconstruction.com/,"mobile-verified,mobile-verified",mobile,T-Mobile USA,success
Modern,,9158523104,,AAAA Contractors and Roofing,,,https://aaaacontractors.com/?utm_source=gmb&utm_medium=organic&utm_campaign=elpaso,"mobile-verified,mobile-verified",mobile,T-Mobile USA,success
Former,,9157744267,,J.K.K. Construction L.L.C.,,,http://jkkconstruction.com/,"mobile-verified,mobile-verified",mobile,T-Mobile USA,success
,,9153309236,,PSC - Pronto Solutions & Co,,,,"mobile-verified,mobile-verified",mobile,Verizon Wireless,success
,,6828086946,,SERVPRO of East Arlington,,,https://www.servpro.com/locations/tx/servpro-of-east-arlington?utm_medium=organic&utm_source=gbp,"mobile-verified,mobile-verified",mobile,Onvoy,success
,,8177144425,,"Eagle Services Cleaning, LLC",,,https://www.eagleservicescleaningandrestorationllc.com/?utm_source=omg-gbp&utm_medium=webclick,"mobile-verified,mobile-verified",mobile,T-Mobile USA,success
,,4695847400,,Rapid Pro Restore,,,https://rapidprorestore.com/,"mobile-verified,mobile-verified",mobile,Verizon Wireless,success
,,4695598049,,Pinnacle Restoration,,,http://pr-tx.com/,"mobile-verified,mobile-verified",mobile,Verizon Wireless,success
Now,,4695560943,,Home Recovery Solutions,,,https://www.homerecoverysolution.com/?utm_source=google&utm_medium=wix_google_business_profile&utm_campaign=8826095084307912885,"mobile-verified,mobile-verified",mobile,T-Mobile USA,success
,,9723639577,,Alpha One Restore,,,https://alphaonerestoretx.com/,"mobile-verified,mobile-verified",mobile,T-Mobile USA,success
,,9723359900,,SERVPRO of South Frisco/ The Colony,,,https://www.servpro.com/locations/tx/servpro-of-south-frisco-the-colony?utm_medium=organic&utm_source=gbp,"mobile-verified,mobile-verified",mobile,Onvoy,success
To,,2142391899,,FreshNest Solutions,,,https://freshnestsolutions.shop/,"mobile-verified,mobile-verified",mobile,Onvoy,success
,,4697689620,,Restoration Experts,,,https://restorationexpertsdallas.com/,"mobile-verified,mobile-verified",mobile,AT&T Wireless,success
Both,,9728101411,superiorrestorationems@gmail.com,Superior Emergency Restoration LLC,,,https://superiorrestorationems.com/,"mobile-verified,mobile-verified",mobile,T-Mobile USA,success
,,4692471720,,B-Line Flood Restoration,,,https://blinefloodrestoration.com/,"mobile-verified,mobile-verified",mobile,AT&T Wireless,success
,,4699908791,,Alpha Royalty Restoration,,,https://alpharoyaltyrestoration.com/,"mobile-verified,mobile-verified",mobile,Verizon Wireless,success
,,2147666722,ed@clickses.com,clicks emergency services,,,https://clickses.com/%3Fy_source%3D1_MTA0MzM5NzMwOC03MTUtbG9jYXRpb24ud2Vic2l0ZQ%3D%3D,"mobile-verified,mobile-verified",mobile,Verizon Wireless,success
,,2143846828,info@restorenow.pro,,Nevada,Texas,http://www.restorenow.pro/,"mobile-verified,mobile-verified",mobile,AT&T Wireless,success
Terry,,2012011123,TCAWDERY@SERVPRO.COM,servpro of park cities,Jersey City,New Jersey,https://www.servpro.com/locations/nj/servpro-of-jersey-city-north-the-heights%3Futm_medium%3Dorganic%26utm_source%3Dgbp,"mobile-verified,mobile-verified",mobile,Onvoy,success
,,4696025106,christinedavis@pauldavis.com,d and d emergency services,Royse City,Texas,http://rockwall.pauldavis.com/,"mobile-verified,mobile-verified",mobile,Onvoy,success
,,7324469003,info@fireandrestorationappraisals.com,,Manalapan Township,New Jersey,https://fireandrestorationappraisals.com/about-us/,"mobile-verified,mobile-verified",mobile,Onvoy,success
