First Name,Last Name,Phone,Email,Company Name,City,State,Website,Tags
,,8178393511,,Fix My Air DFW AC Repair Fort Worth,,,https://www.hvacrepairfortworth.com/,
,,8176783622,,Fort Worth Heating and Air Conditioning,,,,
,,6827031242,,ServicePro DFW - HVAC,,,https://serviceprodfw.com/,
,,6823243936,,"Silver Spur Air, Heating, & Plumbing of DFW",,,https://silverspurhome.com/?utm_source=google&utm_medium=organic&utm_campaign=gbp-DFW,
,,8173415160,,AC Genius AC Repair & Service,,,http://www.acgenius.com/,
,,8173827088,,Seal Heating and Air Conditioning,,,http://www.sealheatingandairconditioning.com/,
Mechanical,Company,9722013253,info@rescueairtx.com,Rescue Air and Plumbing,,,https://www.rescueairtx.com/,
,,8177665706,customerservice@onehourair.com,One Hour Air Conditioning & Heating,,,https://www.onehourairftworth.com/?utm_source=organic&utm_medium=gbp,
,,8173951200,,R-10 Heat & Air,,,https://www.r10heatandair.com/?utm_source=GMBlisting&utm_medium=organic,
,,8176189916,,"AirCo Air Conditioning, Heating and Plumbing",,,https://www.airco.com/?utm_source=google&utm_medium=organic&utm_campaign=GMBListing-Fort-Worth-TX,
,,2148318061,,Dallas Heating and Air Conditioning,,,https://www.dallasheatingac.com/?utm_source=GMB&utm_medium=Website&utm_campaign=Addison,
,,2142146922,,Tiger Air,,,http://www.tigerairtx.com/?utm_source=google&utm_medium=organic&utm_campaign=gbp,
,,2149237904,gilbert@jadeair.net,Jade Air,,,http://jadeair.net/,
,,8172415893,,Service Experts Fort Worth,,,https://www.serviceexperts.com/fort-worth-tx/?&utm_campaign=listing&utm_medium=organic_search&utm_source=gmb&utm_content=brand,
,,8178745513,Service@TexasDiscountAir.com,Texas Discount Air,,,http://www.texasdiscountair.com/,
,,8178000340,,Fort Worth Heat and Air,,,https://www.fortworthheatandair.com/,
,,8174023048,,Made New Air Conditioning & Heating Inc,,,https://www.madenewair.com/,
President,And,8175350881,info@webbair.com,Webb Air Heating & Cooling,,,https://webbair.com/?utm_source=google&utm_medium=organic&utm_campaign=gbp,
Helping,Home,2143047658,,Metro Air Conditioning Heating & Services,,,https://www.metroacs.com/,
,,8176703144,,North Tarrant Heating & Air Conditioning LLC,,,https://www.northtarrantac.com/?utm_campaign=gmb,
,,2145566792,airtrondataprivacy@resservices.com,Airtron Heating & Air Conditioning,,,https://airtron.com/dallas/?utm_source=gmb&utm_medium=gmb-organic&utm_campaign=gmb-dallas,
Some,Home,6823270948,,One Hour Air Conditioning & Heating of Dallas,,,https://www.onehourairdallas.com/?utm_source=organic&utm_medium=gbp,
,,8178887313,,Prime Time Heating And Air LLC,,,https://primetime-tx.com/?utm_source=google&utm_medium=organic&utm_campaign=gbp,
,,8178629856,,"Breeze Air, Heat & Electrical",,,https://breezeairandheat.com/,
,,4699496194,sales@airreydfw.com,Air Rey Service,,,https://www.airreyservice.com/,
Randy,Cody,2148949629,,"Cody & Sons Plumbing, Heating & Air",,,https://codyandsons.com/?utm_source=google&utm_medium=organic&utm_campaign=GMBListing-Dallas-TX,
,,9722847332,,Coolinary Arts Heating & Cooling,,,https://callcoolinaryarts.com/?utm_source=google&utm_medium=gbp&utm_campaign=Dallas,
,,8174763051,,Sunny Service,,,https://www.sunnyservice.com/?utm_source=GMB&utm_medium=local,
,,8172647732,,Air Worth Heating & Cooling,,,https://airworthac.com/haltom-city/,
Oscar,Installation,9724026198,,"Harlen Johnson Heating, Air & Plumbing",,,https://hjac.com/?utm_campaign=gmb,
Electrical,Home,9722928831,,No Sweat Experts,,,https://nosweatexperts.com/,
Senior,Vice,2147427252,WatsonFae@salaair.com,Sala Air Conditioning,,,https://salaair.com/,
,,6822140431,,Top Gun Heating & AC Repair,,,https://topgunairtx.com/keller-heating-services/?utm_source=google&utm_medium=organic&utm_campaign=gbp_keller,
,,8177753295,,Houk Air Conditioning DFW,,,https://houkac.com/service-areas/dallas-fort-worth/?utm_source=gbp&utm_medium=organic,
Why,Home,8172007215,,Prestige Air,,,http://prestigeairtx.com/,
,,9722147002,jorge@mondragonac.com,Mondragon Mechanical LLC,,,https://mondragonac.com/,
,,9727715987,,Appliance & Air Care Experts,,,https://www.applianceandaircare.com/?utm_source=google&utm_medium=organic&utm_campaign=gbp,
,,8178358658,,"Comfort Land Heating, Cooling, & Plumbing",,,https://callcomfortland.com/?utm_source=gbp&utm_medium=organic,
,,8178313950,,Reliant Air Conditioning,,,https://reliantairconditioning.com/?utm_source=google&utm_medium=gmb&utm_campaign=zA501-Organic&se_campaign=zA501-Organic,
,,8175001523,info@anmairconditioningheating.com,A & M Air Conditioning and Heating,,,https://anmairconditioningheating.com/,
,,4697225425,info@atlasacrepair.com,Atlas AC Repair LLC,,,https://atlasacrepair.com/,
New,Home,9728489414,,5 Star HVAC Contractors,,,https://5starhvaccontractors.com/,
,,6823460054,infinityac.heat@gmail.com,Infinity Air Conditioning & Heating LLC,,,http://www.hvacinfinity.com/,
Jeff,Gossett,8174388576,,Texas Air Doctors,,,http://www.texasairdoctors.com/,
,,8178371095,,A Better Deal Heating and Air Conditioning Inc,,,http://abdetterdealinc.com/,
,,9725042079,,Temp Pro Mechanical,,,https://temppromechanical.com/?utm_campaign=gmb,
Harried,Home,2143248811,,"Baker Brothers Plumbing, Air & Electric",,,https://bakerbrothersplumbing.com/?utm_campaign=gmb_bk-msq_home_everyone_gmb-mesquite&utm_medium=gmb&utm_source=google,
,,9726197607,,Service Experts Dallas,,,https://www.serviceexperts.com/dallas-tx/?&utm_campaign=listing&utm_medium=organic_search&utm_source=gmb&utm_content=brand,
,,4694878323,Contact@romaserviceshvac.com,Roma services HVAC,,,http://www.romaserviceshvac.com/,
,,8178017084,info@ftwmg.com,Fort Worth Mechanical Group,,,http://www.fortworthmechanicalgroup.com/,
Family,Owned,9722787111,,"Astar Air Conditioning, Plumbing & Electric",,,https://astardfw.com/,
Area,Home,4699211136,info@proactiveairconditioning.com,Proactive Air Conditioning,,,https://proactiveairconditioning.com/,
As,Operations,2145268533,customerservice@quigleyac.com,Quigley Heating & Air Conditioning of Dallas,,,https://quigleyac.com/?utm_source=google+business+listing&utm_medium=organic&utm_campaign=click+to+website,
,,9459987066,,Unlimited Air Conditioning and Heating,,,https://unlimitedairandheating.com/,
,,4692681493,triplemhvacsolutions@gmail.com,,,,https://www.triplemairsolutions.com/,
,,,,"A/C Rescue, Inc.",,,https://acrescue.net/,
