First Name,Last Name,Phone,Email,Company Name,City,State,Website,Tags
,,4697783565,,Jansen Public Adjusters,,,https://www.jansenai.com/contact/office-locations/dallas-texas/,
,,4693516611,,ClaimsMate Public Adjusters,,,https://claimsmate.com/dallas-public-adjuster/,
,,2143965768,,Tutwiler & Associates Public Adjusters,,,https://www.publicadjuster.com/type-of-claim/frozen-pipe-claims,
,,2145010598,,"Abba Claims Consultants, LLC - Public Adjuster",,,https://www.abbaclaims.com/dallas-public-adjuster/,
,,4693235365,,ASSURANCE CLAIMS SERVICE CO,,,,
,,8554568966,,Citizens Public Adjusters,,,https://www.citizenspublicadjusters.com/,
,,9723433400,,Pilot Catastrophe Services Inc,,,https://www.pilotcat.com/,
,,9037334664,,Adjuster Texas,,,http://www.adjustertexas.com/,
,,2148089163,,True View Commercial,,,https://www.trueviewcommercial.com/,
,,4694239589,,Consumer Protection Public Adjusters Firm,,,https://www.cppafirm.com/,
,,2147706302,,Texas Claim Pro PA,,,https://www.txclaimpro.com/,
,,8333125246,,Hope Public Adjusters,,,https://hopepublicadjusters.com/,
,,8177565482,,Auto Claim Specialists,,,http://www.autoclaimspecialists.com/,
,,8177868620,,Restoration Consulting,,,https://www.restorationpa.com/,
,,4694552001,,APIA Source- Public Adjusters for the Insured,,,https://www.apiasource.com/,
,,2142004878,,"Law Firm of Aaron A. Herbert, P.C.",,,https://injuryattorneyofdallas.com/?utm_source=Google+My+business&utm_medium=gmb&utm_campaign=google+my+business,
,,8178346079,,Dallas County Adjusters,,,,
,,8176180006,,Anderson Injury Lawyers Fort Worth,,,https://maafirm.com/fort-worth-personal-injury-lawyer/?utm_source=google&utm_medium=organic&utm_campaign=gmb-fort-worth,
,,9728898003,,"Texas Insurance Claims Service, Inc.",,,http://www.ticsi.net/,
,,8664246726,,GAINSCO Auto Insurance,,,https://www.gainsco.com/,
,,8007432231,,"Contract Claims Services, Inc.",,,,
,,4694877800,,ClaimShield,,,https://shieldclaim.com/,
,,8325511195,,Disaster Insurance Claims,,,https://disasterinsuranceclaims.com/?utm_source=gmb&utm_medium=organic&utm_campaign=houston-gmb,
,,8175524100,,"CareGard Warranty Services, Inc.",,,https://caregardservices.com/,
,,9729918782,,Insurance Staffing Solutions,,,,
,,9728002175,,My Car Claim Expert,,,https://www.mycarclaimexpert.com/,
,,2143378888,,Carlos Luevano Jr - State Farm Insurance Agent,,,https://www.teamluevano.com/?cmpid=KIVR_blm_0001,
,,2148335053,,Dalworth Restoration,,,http://www.dalworthrestoration.com/,
,,9729919100,,"Thumann Agency, Inc",,,http://thumannagency.com/,
,,2145439440,curtis@dallasadjusters.com,"National Adjustment Services, Inc.",,,http://hireyourownadjuster.com/,
,,8172718165,Claims@txclaims.com,"Provident Public Adjusters, LLC",,,http://txclaims.com/,
,,8004193994,TJ@ParadiseClaims.com,Paradise Claims,,,https://paradiseclaims.com/,
,,8178888815,Marlin@ClaimsPA.com,Claims Public Adjusting,,,https://www.claimspa.com/,
,,9723021300,texaspublicadjusting@gmail.com,Texas Public Adjusting / Public Adjuster,,,http://www.texaspublicadjusting.net/,
,,8172407779,info@vpstx.com,"Viridian Property Solutions, LLC",,,http://www.vpstx.com/,
,,9729822327,support@marketing360.com,"Grasso Public Adjusters, Inc.",,,http://www.grassopa.com/,
,,9727428486,kerry@northtexaspa.com,North Texas Public Adjusting,,,https://www.northtexaspa.com/,
,,8174583056,estimates@suncoastclaims.com,"Suncoast Claims, Inc.",,,https://suncoastclaims.com/,
,,9727906300,customercare@restoration-solutions.biz,Restoration Solutions,,,http://restoration-solutions.biz/?utm_source=gmb&utm_medium=listing&utm_campaign=local,
,,2142178899,info@vipadjusting.com,VIP Adjusting - Public Adjusters,,,https://www.vipadjusting.com/dallas-texas,
,,8174569216,Publicadjusterdfw@gmail.com,Mayhem Claim Solutions,,,https://mayhemadjusting.com/?utm_source=gmb&utm_medium=organic&utm_campaign=Maps,
,,8179694621,claims@ncnmail.com,National Claims Negotiators LLC,,,https://nationalclaimsnegotiators.com/,
,,8334727537,claims@parkerlc.com,Parker Loss Consultants,,,https://www.parkerlossconsultants.com/,
,,9727701600,Alexandra.OConnor@marshmma.com,"MHBT, a Marsh & McLennan Agency LLC company",,,https://www.marshmma.com/us/locations/texas/dallas.html,
,,8004865616,hplclaims@hallmarkgrp.com,Hallmark Financial,,,https://www.hallmarkgrp.com/,
,,4693318222,marcus@hawkadjusting.com,,Rockwall,Texas,https://www.hawkpublicadjusters.com/,
,,9175001514,claims@directpaloss.com,,Forest Hills,New York,https://directpaloss.com/,
,,8884976324,info@independenceclaims.com,,,,https://independenceclaims.com/,
,,4693613999,info@libertyinsuranceadjusters.com,liberty adjusters,Plano,Texas,https://www.libertyinsuranceadjusters.com/,
,,9722885666,,,Mesquite,Texas,,
Daryle,,2143736600,dprager@continentaladjusters.com,continental adjusters inc,McKinney,Texas,http://www.continentaladjusters.com/,
,,9728378108,,,,,https://www.gfradjusters.com/,
,,9728022719,info@claimsadjusteracademy.com,,Addison,Texas,https://claimsadjusteracademy.com/,
,,9722882222,,,Balch Springs,Texas,,
,,8176189884,,,,,https://thepublicadjustertx.com/,
Dave,,9727677699,dave@2021training.com,2021training com,Plano,Texas,https://www.2021training.com/%3Futm_source%3Dgmb%26utm_medium%3Dreferral,
Todd,,2032484400,todd@thepublicsadjuster.com,the publics adjuster llc,Hamden,Connecticut,http://www.thepublicsadjuster.com/,
,,8443440422,info@my-adjuster.com,,Coppell,Texas,http://my-adjuster.com/,
,,2142563210,claims@dchoganpa.com,,Dallas,Texas,https://www.dchogan.associates/dallas-public-adjuster,
,,8662126202,,,Frisco,Texas,https://www.gorillapa.com/,
,,9726611464,,,Addison,Texas,,
,,8557953494,,,,,,
,,4352105068,,,,,,
,,4692482098,adjuster@inbox.com,,Dallas,Texas,http://txsadj.com/,
,,,,H&H Public Adjusters,,,,
