First Name,Last Name,Phone,Email,Company Name,City,State,Website,Tags
,,9145599152,,,Buchanan,New York,https://www.fredcook.com/buchanan-septic-services/%3Futm_campaign%3Dgmb,
,,9737563283,,,Sparta,New Jersey,https://wilsonservices.com/%3Futm_source%3Dgoogle%26utm_medium%3Dgmb%26utm_campaign%3Dlocal,
,,9032687382,,,Quinlan,Texas,https://qualityseptic.net/,
,,8136434642,,,,,https://www.brandonsepticservices.com/,
,,8454132317,,,Maybrook,New York,https://www.busybeesepticservices.com/,
,,8456280166,,,Mahopac,New York,https://www.evansseptictankservice.net/,
,,7862524029,,,Hollywood,Florida,https://www.onmywayseptic.com/,
,,5302732964,,,Grass Valley,California,http://www.navo.com/,
,,9287937797,,,,,http://usaplumbingseptic.com/%3Futm_source%3DGBP%26utm_medium%3Dorganic%26utm_campaign%3Doffice,
,,7755256999,,,Reno,Nevada,https://rootermanrenocarson.com/,
,,9729484500,,,Allen,Texas,http://royalflushseptics.com/,
,,6314224122,,,,,https://www.drasticdrainage.com/,
,,6097582700,,,North Hanover,New Jersey,https://www.donemillerseptic.com/,
,,7758833411,,,Mound House,Nevada,http://www.bonanzaseptic.com/,
,,7754279603,,,Fallon,Nevada,http://mscseptic.com/,
,,2707914099,,,,,http://www.rickssepticservice.com/,
,,6032361334,,,Wentworth,New Hampshire,http://www.nhsepticinspector.com/,
,,2145249715,,,Lavon,Texas,https://rodseptic.com/,
,,6786168997,,,Dallas,Georgia,https://anytime-septic.com/cities-we-serve/dallas/,
,,7026009495,,,,,https://lasvegassepticservice.com/service-areas/las-vegas-nv/%3Futm_source%3Dgoogle%26utm_medium%3Dgbp%26utm_campaign%3Dmaps,
,,4693073787,,,Anna,Texas,https://www.nortexseptic.com/,
,,4692222106,,,Farmersville,Texas,https://www.sigmasolutionssepticservices.com/,
,,9738385840,,,West Milford,New Jersey,http://www.mbsepticservices.com/,
,,7754308877,,,Carson City,Nevada,https://greenvalleyseptic.com/,
,,7026000941,,,,,https://lasvegassepticservice.com/,
,,9035029640,,,,,https://bseptic.net/,
,,4695129149,,,,,https://www.yearroundseptic.com/,
,,7742139631,,,,,https://www.septicservicesofma.com/,
,,2142561590,,,,,http://www.homefieldonsite.com/collin-county,
,,4697951213,,,,,https://www.heartlandgreaseseptic.com/,
,,2148433536,,,,,http://brightstarexcavating.com/,
,,9086894114,,,Stewartsville,New Jersey,http://awsepticservice.wixsite.com/website,
,,5709556698,,,,,https://abssepticpa.com/,
,,5743205595,,,,,http://macs-septic.com/,
,,8593241768,,,,,https://www.cooleycompanyconstruction.com/,
,,4692594583,,,Aubrey,Texas,https://totalseptic.net/,
,,2039812592,,,,,http://absolutesepticct.com/,
,,7322564002,,,Farmingdale,New Jersey,http://www.septicpumpingservicesnj.com/,
,,6107970630,,,,,http://schmickseptic.com/,
,,9086899088,,,,,http://www.tricountysepticnj.com/,
,,6107492001,,,Riegelsville,Pennsylvania,http://www.rivervalleyseptic.com/,
,,7753563939,,,Sparks,Nevada,https://sierrasepticservice.com/,
,,8644266996,,,,,https://www.iveysepticsc.com/,
,,5177777671,,,,,https://www.septicopatingsystems.com/,
,,9035130811,,,,,https://www.aoneaffordablesepticcleaning.com/,
,,7758830288,,,Carson City,Nevada,http://shamrocknv.com/,
,,9722688188,,,,,https://www.excaliburseptic.com/,
,,7166763388,,,Franklinville,New York,http://www.zuechs.com/,
,,7174357317,,,,,http://www.acculandserv.com/,
,,7023787732,,,Logandale,Nevada,http://boyce-inc.com/,
,,4174489712,,,Nevada,Missouri,http://nevadamoplumbing.com/,
,,9727362186,,,Princeton,Texas,https://www.facebook.com/pages/A-1-Septic-Service/112574975505235,
,,9722861444,,,Garland,Texas,http://www.allaroundsepticanddirtwork.com/,
,,2143413355,,,,,http://united-septic.com/,
,,7759937867,,,,,https://renosepticservice.com/,
,,7759016020,,,,,https://www.hartandsonsseptic.com/,
,,9375339501,,,Farmersville,Ohio,http://scottsoutdoorservicesllc.com/%3Futm_source%3Dgmb%26utm_medium%3Dreferral,
,,7177332339,,,,,https://www.strohlseptic.com/,
,,7752652520,,,Gardnerville,Nevada,http://www.bobulasepticservice.com/,
,,9452271077,,,Princeton,Texas,https://www.ruebengroup.com/,
,,7329286688,,,,,http://www.atlanticsepticsewer.com/,
,,5168464961,,,,,https://www.helpcesspool.com/,
,,7023993878,,,North Las Vegas,Nevada,http://www.hardinsons.com/,
,,7024009414,,,Las Vegas,Nevada,http://www.desertex.net/,
,,7758992860,,,Gardnerville,Nevada,https://www.laketahoeseptic.com/,
,,8177572132,,,,,https://www.completesepticpumpingtx.com/,
,,5409777684,,,Roanoke,Virginia,http://hallseptictankcleaning.com/,
,,7022798706,,,Las Vegas,Nevada,http://www.americanpumping.com/,
,,4176675122,,,Nevada,Missouri,https://zacherwinconstruction.com/,
,,6097370816,,,,,http://www.romanseptic.net/,
,,7757386442,,,,,https://www.facebook.com/portapots/,
,,9738380438,,,Ringwood,New Jersey,http://www.lakelandsepticcoinc.com/,
,,9032038250,,,Greenville,Texas,http://www.collincountyseptic.com/,
,,2147339957,,,,,https://www.jjmsepticllc.com/,
,,9088326556,,,,,http://www.callthepumper.com/,
,,6189936038,,,Marion,Illinois,https://www.lucasseptic.com/,
,,9725627452,,,,,,
,,6065871693,,,Teaberry,Kentucky,,
,,6092981284,,,Chesterfield,New Jersey,,
,,2147081899,,,,,,
,,9032681337,,,,,,
,,9722909354,,,,,,
,,7028483987,,,Moapa Valley,Nevada,,
,,9374759330,,,,,,
,,9034560989,,,,,,
,,5597848107,,,Farmersville,California,,
,,2126871215,,RR Plumbing Roto-Rooter,New York,New York,https://www.rotorooter.com/manhattan/%3Futm_source%3DGoogle%26utm_medium%3Dorganic%26utm_campaign%3Dgmb%26utm_content%3Dwebsite,
,,2153960736,,Rick Lucas Plumbing & Remodeling - Plumber in Bucks County PA,Feasterville-Trevose,Pennsylvania,https://ricklucasplumbing.com/,
,,2159683901,,Lucas Ltd,Newtown,Pennsylvania,http://www.lucasltd.com/,
,,9378305524,,Moore Sewer Services,,,https://www.mooresewerservices.com/,
,,9374597244,,Alliance Septic and Excavating,,,,
,,9724956666,,Sachse Plumbing,,,http://www.sachseplumbing.com/,
,,7404822313,,Stiger Pre Cast Inc,Nevada,Ohio,https://www.stigerprecast.com/,
,,7024729626,,Chief Septic & Sewer,Las Vegas,Nevada,,
,,7027066111,,Advanced Drain Jetting,,,http://www.advanceddrainjetting.com/,
,,7758511600,,"Bruce MacKay Pump & Well Service, Inc.",Reno,Nevada,http://www.brucemackay.com/,
,,7756251525,,Echeverria's,Winnemucca,Nevada,,
,,7754826841,,M & K Enterprises,Tonopah,Nevada,,
,,,,Frank Liquori Septic Services,Staten Island,New York,,
