First Name,Last Name,Phone,Email,Company Name,City,State,Website,Tags,line_type,carrier,lookup_status
,,8136434642,,,,,https://www.brandonsepticservices.com/,mobile-verified,mobile,T-Mobile USA,success
,,7862524029,,,Hollywood,Florida,https://www.onmywayseptic.com/,mobile-verified,mobile,AT&T Wireless,success
,,7755256999,,,Reno,Nevada,https://rootermanrenocarson.com/,mobile-verified,mobile,Onvoy,success
,,9729484500,,,Allen,Texas,http://royalflushseptics.com/,mobile-verified,mobile,Verizon Wireless,success
,,6314224122,,,,,https://www.drasticdrainage.com/,mobile-verified,mobile,Verizon Wireless,success
,,7758833411,,,Mound House,Nevada,http://www.bonanzaseptic.com/,mobile-verified,mobile,Verizon Wireless,success
,,7754279603,,,Fallon,Nevada,http://mscseptic.com/,mobile-verified,mobile,Verizon Wireless,success
,,2707914099,,,,,http://www.rickssepticservice.com/,mobile-verified,mobile,Verizon Wireless,success
,,6032361334,,,Wentworth,New Hampshire,http://www.nhsepticinspector.com/,mobile-verified,mobile,AT&T Wireless,success
,,2145249715,,,Lavon,Texas,https://rodseptic.com/,mobile-verified,mobile,T-Mobile USA,success
,,7026009495,,,,,https://lasvegassepticservice.com/service-areas/las-vegas-nv/%3Futm_source%3Dgoogle%26utm_medium%3Dgbp%26utm_campaign%3Dmaps,mobile-verified,mobile,Verizon Wireless,success
,,4693073787,,,Anna,Texas,https://www.nortexseptic.com/,mobile-verified,mobile,AT&T Wireless,success
,,4692222106,,,Farmersville,Texas,https://www.sigmasolutionssepticservices.com/,mobile-verified,mobile,Verizon Wireless,success
,,9738385840,,,West Milford,New Jersey,http://www.mbsepticservices.com/,mobile-verified,mobile,Verizon Wireless,success
,,7754308877,,,Carson City,Nevada,https://greenvalleyseptic.com/,mobile-verified,mobile,Verizon Wireless,success
,,7026000941,,,,,https://lasvegassepticservice.com/,mobile-verified,mobile,Verizon Wireless,success
,,4695129149,,,,,https://www.yearroundseptic.com/,mobile-verified,mobile,AT&T Wireless,success
,,2148433536,,,,,http://brightstarexcavating.com/,mobile-verified,mobile,AT&T Wireless,success
,,9086894114,,,Stewartsville,New Jersey,http://awsepticservice.wixsite.com/website,mobile-verified,mobile,AT&T Wireless,success
,,5709556698,,,,,https://abssepticpa.com/,mobile-verified,mobile,Verizon Wireless,success
,,5743205595,,,,,http://macs-septic.com/,mobile-verified,mobile,AT&T Wireless,success
,,8593241768,,,,,https://www.cooleycompanyconstruction.com/,mobile-verified,mobile,AT&T Wireless,success
,,2039812592,,,,,http://absolutesepticct.com/,mobile-verified,mobile,AT&T Wireless,success
,,6107492001,,,Riegelsville,Pennsylvania,http://www.rivervalleyseptic.com/,mobile-verified,mobile,Verizon Wireless,success
,,7753563939,,,Sparks,Nevada,https://sierrasepticservice.com/,mobile-verified,mobile,AT&T Wireless,success
,,8644266996,,,,,https://www.iveysepticsc.com/,mobile-verified,mobile,AT&T Wireless,success
,,9035130811,,,,,https://www.aoneaffordablesepticcleaning.com/,mobile-verified,mobile,AT&T Wireless,success
,,7758830288,,,Carson City,Nevada,http://shamrocknv.com/,mobile-verified,mobile,AT&T Wireless,success
,,7023787732,,,Logandale,Nevada,http://boyce-inc.com/,mobile-verified,mobile,Verizon Wireless,success
,,4174489712,,,Nevada,Missouri,http://nevadamoplumbing.com/,mobile-verified,mobile,Verizon Wireless,success
,,9727362186,,,Princeton,Texas,https://www.facebook.com/pages/A-1-Septic-Service/112574975505235,mobile-verified,mobile,AT&T Wireless,success
,,9722861444,,,Garland,Texas,http://www.allaroundsepticanddirtwork.com/,mobile-verified,mobile,AT&T Wireless,success
,,2143413355,,,,,http://united-septic.com/,mobile-verified,mobile,T-Mobile USA,success
,,7759016020,,,,,https://www.hartandsonsseptic.com/,mobile-verified,mobile,AT&T Wireless,success
,,9375339501,,,Farmersville,Ohio,http://scottsoutdoorservicesllc.com/%3Futm_source%3Dgmb%26utm_medium%3Dreferral,mobile-verified,mobile,Verizon Wireless,success
,,9452271077,,,Princeton,Texas,https://www.ruebengroup.com/,mobile-verified,mobile,AT&T Wireless,success
,,7024009414,,,Las Vegas,Nevada,http://www.desertex.net/,mobile-verified,mobile,AT&T Wireless,success
,,7758992860,,,Gardnerville,Nevada,https://www.laketahoeseptic.com/,mobile-verified,mobile,Verizon Wireless,success
,,8177572132,,,,,https://www.completesepticpumpingtx.com/,mobile-verified,mobile,Verizon Wireless,success
,,5409777684,,,Roanoke,Virginia,http://hallseptictankcleaning.com/,mobile-verified,mobile,Verizon Wireless,success
,,7022798706,,,Las Vegas,Nevada,http://www.americanpumping.com/,mobile-verified,mobile,Verizon Wireless,success
,,4176675122,,,Nevada,Missouri,https://zacherwinconstruction.com/,mobile-verified,mobile,Verizon Wireless,success
,,9032038250,,,Greenville,Texas,http://www.collincountyseptic.com/,mobile-verified,mobile,T-Mobile USA,success
,,2147339957,,,,,https://www.jjmsepticllc.com/,mobile-verified,mobile,AT&T Wireless,success
,,9725627452,,,,,,mobile-verified,mobile,AT&T Wireless,success
,,2147081899,,,,,,mobile-verified,mobile,Verizon Wireless,success
,,9032681337,,,,,,mobile-verified,mobile,AT&T Wireless,success
,,9722909354,,,,,,mobile-verified,mobile,AT&T Wireless,success
,,9374759330,,,,,,mobile-verified,mobile,Verizon Wireless,success
,,9034560989,,,,,,mobile-verified,mobile,AT&T Wireless,success
,,5597848107,,,Farmersville,California,,mobile-verified,mobile,Onvoy,success
,,9378305524,,Moore Sewer Services,,,https://www.mooresewerservices.com/,mobile-verified,mobile,AT&T Wireless,success
,,9374597244,,Alliance Septic and Excavating,,,,mobile-verified,mobile,Verizon Wireless,success
,,7404822313,,Stiger Pre Cast Inc,Nevada,Ohio,https://www.stigerprecast.com/,mobile-verified,mobile,Verizon Wireless,success
,,7024729626,,Chief Septic & Sewer,Las Vegas,Nevada,,mobile-verified,mobile,Onvoy,success
,,7027066111,,Advanced Drain Jetting,,,http://www.advanceddrainjetting.com/,mobile-verified,mobile,AT&T Wireless,success
,,7758511600,,"Bruce MacKay Pump & Well Service, Inc.",Reno,Nevada,http://www.brucemackay.com/,mobile-verified,mobile,Onvoy,success
,,7756251525,,Echeverria's,Winnemucca,Nevada,,mobile-verified,mobile,Verizon Wireless,success
