First Name,Last Name,Phone,Email,Company Name,City,State,Website,Tags,line_type,carrier,lookup_status
,,9145599152,,,Buchanan,New York,https://www.fredcook.com/buchanan-septic-services/%3Futm_campaign%3Dgmb,,nonFixedVoip,Twilio - SMS/MMS-SVR,success
,,9737563283,,,Sparta,New Jersey,https://wilsonservices.com/%3Futm_source%3Dgoogle%26utm_medium%3Dgmb%26utm_campaign%3Dlocal,,nonFixedVoip,Twilio - SMS/MMS-SVR,success
,,9032687382,,,Quinlan,Texas,https://qualityseptic.net/,,nonFixedVoip,Twilio - SMS/MMS-SVR,success
,,8136434642,,,,,https://www.brandonsepticservices.com/,,mobile,T-Mobile USA,success
,,8454132317,,,Maybrook,New York,https://www.busybeesepticservices.com/,,nonFixedVoip,Twilio - SMS/MMS-SVR,success
,,8456280166,,,Mahopac,New York,https://www.evansseptictankservice.net/,,landline,Verizon,success
,,7862524029,,,Hollywood,Florida,https://www.onmywayseptic.com/,,mobile,AT&T Wireless,success
,,5302732964,,,Grass Valley,California,http://www.navo.com/,,nonFixedVoip,Bandwidth/13 - Bandwidth.com - Infobip,success
,,9287937797,,,,,http://usaplumbingseptic.com/%3Futm_source%3DGBP%26utm_medium%3Dorganic%26utm_campaign%3Doffice,,nonFixedVoip,Bandwidth/15 - Bandwidth.com - SVR,success
,,7755256999,,,Reno,Nevada,https://rootermanrenocarson.com/,,mobile,Onvoy,success
,,9729484500,,,Allen,Texas,http://royalflushseptics.com/,,mobile,Verizon Wireless,success
,,6314224122,,,,,https://www.drasticdrainage.com/,,mobile,Verizon Wireless,success
,,6097582700,,,North Hanover,New Jersey,https://www.donemillerseptic.com/,,nonFixedVoip,Twilio - SMS/MMS-SVR,success
,,7758833411,,,Mound House,Nevada,http://www.bonanzaseptic.com/,,mobile,Verizon Wireless,success
,,7754279603,,,Fallon,Nevada,http://mscseptic.com/,,mobile,Verizon Wireless,success
,,2707914099,,,,,http://www.rickssepticservice.com/,,mobile,Verizon Wireless,success
,,6032361334,,,Wentworth,New Hampshire,http://www.nhsepticinspector.com/,,mobile,AT&T Wireless,success
,,2145249715,,,Lavon,Texas,https://rodseptic.com/,,mobile,T-Mobile USA,success
,,6786168997,,,Dallas,Georgia,https://anytime-septic.com/cities-we-serve/dallas/,,nonFixedVoip,Twilio - SMS/MMS-SVR,success
,,7026009495,,,,,https://lasvegassepticservice.com/service-areas/las-vegas-nv/%3Futm_source%3Dgoogle%26utm_medium%3Dgbp%26utm_campaign%3Dmaps,,mobile,Verizon Wireless,success
,,4693073787,,,Anna,Texas,https://www.nortexseptic.com/,,mobile,AT&T Wireless,success
,,4692222106,,,Farmersville,Texas,https://www.sigmasolutionssepticservices.com/,,mobile,Verizon Wireless,success
,,9738385840,,,West Milford,New Jersey,http://www.mbsepticservices.com/,,mobile,Verizon Wireless,success
,,7754308877,,,Carson City,Nevada,https://greenvalleyseptic.com/,,mobile,Verizon Wireless,success
,,7026000941,,,,,https://lasvegassepticservice.com/,,mobile,Verizon Wireless,success
,,9035029640,,,,,https://bseptic.net/,,nonFixedVoip,Twilio - SMS/MMS-SVR,success
,,4695129149,,,,,https://www.yearroundseptic.com/,,mobile,AT&T Wireless,success
,,7742139631,,,,,https://www.septicservicesofma.com/,,fixedVoip,Comcast,success
,,2142561590,,,,,http://www.homefieldonsite.com/collin-county,,nonFixedVoip,Twilio - SMS/MMS-SVR,success
,,4697951213,,,,,https://www.heartlandgreaseseptic.com/,,nonFixedVoip,Google (Grand Central) - SVR,success
,,2148433536,,,,,http://brightstarexcavating.com/,,mobile,AT&T Wireless,success
,,9086894114,,,Stewartsville,New Jersey,http://awsepticservice.wixsite.com/website,,mobile,AT&T Wireless,success
,,5709556698,,,,,https://abssepticpa.com/,,mobile,Verizon Wireless,success
,,5743205595,,,,,http://macs-septic.com/,,mobile,AT&T Wireless,success
,,8593241768,,,,,https://www.cooleycompanyconstruction.com/,,mobile,AT&T Wireless,success
,,4692594583,,,Aubrey,Texas,https://totalseptic.net/,,nonFixedVoip,Twilio - SMS/MMS-SVR,success
,,2039812592,,,,,http://absolutesepticct.com/,,mobile,AT&T Wireless,success
,,7322564002,,,Farmingdale,New Jersey,http://www.septicpumpingservicesnj.com/,,fixedVoip,Cablevision Lightpath,success
,,6107970630,,,,,http://schmickseptic.com/,,nonFixedVoip,Bandwidth.com CLEC,success
,,9086899088,,,,,http://www.tricountysepticnj.com/,,nonFixedVoip,Vonage America LLC,success
,,6107492001,,,Riegelsville,Pennsylvania,http://www.rivervalleyseptic.com/,,mobile,Verizon Wireless,success
,,7753563939,,,Sparks,Nevada,https://sierrasepticservice.com/,,mobile,AT&T Wireless,success
,,8644266996,,,,,https://www.iveysepticsc.com/,,mobile,AT&T Wireless,success
,,5177777671,,,,,https://www.septicopatingsystems.com/,,fixedVoip,Level 3 Communications,success
,,9035130811,,,,,https://www.aoneaffordablesepticcleaning.com/,,mobile,AT&T Wireless,success
,,7758830288,,,Carson City,Nevada,http://shamrocknv.com/,,mobile,AT&T Wireless,success
,,9722688188,,,,,https://www.excaliburseptic.com/,,nonFixedVoip,Onvoy/4 - Sinch,success
,,7166763388,,,Franklinville,New York,http://www.zuechs.com/,,nonFixedVoip,Bandwidth.com CLEC,success
,,7174357317,,,,,http://www.acculandserv.com/,,nonFixedVoip,Ymax Communications Corp.,success
,,7023787732,,,Logandale,Nevada,http://boyce-inc.com/,,mobile,Verizon Wireless,success
,,4174489712,,,Nevada,Missouri,http://nevadamoplumbing.com/,,mobile,Verizon Wireless,success
,,9727362186,,,Princeton,Texas,https://www.facebook.com/pages/A-1-Septic-Service/112574975505235,,mobile,AT&T Wireless,success
,,9722861444,,,Garland,Texas,http://www.allaroundsepticanddirtwork.com/,,mobile,AT&T Wireless,success
,,2143413355,,,,,http://united-septic.com/,,mobile,T-Mobile USA,success
,,7759937867,,,,,https://renosepticservice.com/,,nonFixedVoip,Twilio - SMS/MMS-SVR,success
,,7759016020,,,,,https://www.hartandsonsseptic.com/,,mobile,AT&T Wireless,success
,,9375339501,,,Farmersville,Ohio,http://scottsoutdoorservicesllc.com/%3Futm_source%3Dgmb%26utm_medium%3Dreferral,,mobile,Verizon Wireless,success
,,7177332339,,,,,https://www.strohlseptic.com/,,nonFixedVoip,D & E Systems,success
,,7752652520,,,Gardnerville,Nevada,http://www.bobulasepticservice.com/,,nonFixedVoip,Frontier Communications,success
,,9452271077,,,Princeton,Texas,https://www.ruebengroup.com/,,mobile,AT&T Wireless,success
,,7329286688,,,,,http://www.atlanticsepticsewer.com/,,landline,MCI Metro,success
,,5168464961,,,,,https://www.helpcesspool.com/,,nonFixedVoip,Bandwidth/15 - Bandwidth.com - SVR,success
,,7023993878,,,North Las Vegas,Nevada,http://www.hardinsons.com/,,nonFixedVoip,Bandwidth/13 - Bandwidth.com - Infobip,success
,,7024009414,,,Las Vegas,Nevada,http://www.desertex.net/,,mobile,AT&T Wireless,success
,,7758992860,,,Gardnerville,Nevada,https://www.laketahoeseptic.com/,,mobile,Verizon Wireless,success
,,8177572132,,,,,https://www.completesepticpumpingtx.com/,,mobile,Verizon Wireless,success
,,5409777684,,,Roanoke,Virginia,http://hallseptictankcleaning.com/,,mobile,Verizon Wireless,success
,,7022798706,,,Las Vegas,Nevada,http://www.americanpumping.com/,,mobile,Verizon Wireless,success
,,4176675122,,,Nevada,Missouri,https://zacherwinconstruction.com/,,mobile,Verizon Wireless,success
,,6097370816,,,,,http://www.romanseptic.net/,,fixedVoip,Level 3 Communications,success
,,7757386442,,,,,https://www.facebook.com/portapots/,,nonFixedVoip,Frontier Communications,success
,,9738380438,,,Ringwood,New Jersey,http://www.lakelandsepticcoinc.com/,,nonFixedVoip,Bandwidth.com CLEC,success
,,9032038250,,,Greenville,Texas,http://www.collincountyseptic.com/,,mobile,T-Mobile USA,success
,,2147339957,,,,,https://www.jjmsepticllc.com/,,mobile,AT&T Wireless,success
,,9088326556,,,,,http://www.callthepumper.com/,,landline,Connect Holding II dba Brightspeed,success
,,6189936038,,,Marion,Illinois,https://www.lucasseptic.com/,,nonFixedVoip,Vonage/Nexmo - Sinch,success
,,9725627452,,,,,,,mobile,AT&T Wireless,success
,,6065871693,,,Teaberry,Kentucky,,,fixedVoip,Gearheart Comm. Co.,success
,,6092981284,,,Chesterfield,New Jersey,,,landline,Verizon,success
,,2147081899,,,,,,,mobile,Verizon Wireless,success
,,9032681337,,,,,,,mobile,AT&T Wireless,success
,,9722909354,,,,,,,mobile,AT&T Wireless,success
,,7028483987,,,Moapa Valley,Nevada,,,nonFixedVoip,Bandwidth/13 - Bandwidth.com - Infobip,success
,,9374759330,,,,,,,mobile,Verizon Wireless,success
,,9034560989,,,,,,,mobile,AT&T Wireless,success
,,5597848107,,,Farmersville,California,,,mobile,Onvoy,success
,,2126871215,,RR Plumbing Roto-Rooter,New York,New York,https://www.rotorooter.com/manhattan/%3Futm_source%3DGoogle%26utm_medium%3Dorganic%26utm_campaign%3Dgmb%26utm_content%3Dwebsite,,fixedVoip,Level 3 Communications,success
,,2153960736,,Rick Lucas Plumbing & Remodeling - Plumber in Bucks County PA,Feasterville-Trevose,Pennsylvania,https://ricklucasplumbing.com/,,landline,Verizon,success
,,2159683901,,Lucas Ltd,Newtown,Pennsylvania,http://www.lucasltd.com/,,nonFixedVoip,Bandwidth.com CLEC,success
,,9378305524,,Moore Sewer Services,,,https://www.mooresewerservices.com/,,mobile,AT&T Wireless,success
,,9374597244,,Alliance Septic and Excavating,,,,,mobile,Verizon Wireless,success
,,9724956666,,Sachse Plumbing,,,http://www.sachseplumbing.com/,,nonFixedVoip,Frontier Communications,success
,,7404822313,,Stiger Pre Cast Inc,Nevada,Ohio,https://www.stigerprecast.com/,,mobile,Verizon Wireless,success
,,7024729626,,Chief Septic & Sewer,Las Vegas,Nevada,,,mobile,Onvoy,success
,,7027066111,,Advanced Drain Jetting,,,http://www.advanceddrainjetting.com/,,mobile,AT&T Wireless,success
,,7758511600,,"Bruce MacKay Pump & Well Service, Inc.",Reno,Nevada,http://www.brucemackay.com/,,mobile,Onvoy,success
,,7756251525,,Echeverria's,Winnemucca,Nevada,,,mobile,Verizon Wireless,success
,,7754826841,,M & K Enterprises,Tonopah,Nevada,,,nonFixedVoip,Frontier Communications,success
,,,,Frank Liquori Septic Services,Staten Island,New York,,,invalid,,skipped_no_phone
