First Name,Last Name,Phone,Email,Company Name,City,State,Website,Tags
,,9034537001,meghan.mcmichael@townsquareinteractive.com,,,,http://texasmetalsandcontracting.com/%3Futm_source%3Dorganic%26utm_medium%3Dgoogle_my_business%26utm_id%3Dgoogle,mobile-verified
,,2144824496,info@fredoniaoutdoorservices.com,,Rockwall,Texas,http://fredoniaoutdoorservices.com/,mobile-verified
,,9727629502,ecastro@rockwallcontractors.com,rockwall contractors inc,Rockwall,Texas,https://www.rockwallcontractors.com/,mobile-verified
,,4698318810,info@jjgeneralcontractor.net,,,,http://www.jjgeneralcontractors.net/,mobile-verified
,,9172049870,truesteelconstruction@gmail.com,true steel construction llc,Newark,New Jersey,https://www.truesteelconstruction.com/,mobile-verified
,,4699102997,justin@waynecolecontracting.com,,,,https://www.waynecolecontracting.com/,mobile-verified
,,2145077239,sales@ftxpoolsandconstruction.com,,,,http://famoustxpoolsandconstruction.com/,mobile-verified
Dominique,,2147082685,dbarnett@tcbconstructiongroup.com,tcb construction,Rockwall,Texas,http://tcbconstructiongroup.com/,mobile-verified
,,2143173758,,,,,,mobile-verified
,,2142806145,,,,,,mobile-verified
,,9034534182,,,,,,mobile-verified
,,9728903681,,,Plano,Texas,,mobile-verified
,,8175044537,,,Royse City,Texas,,mobile-verified
,,7404822313,,,Nevada,Ohio,https://www.stigerprecast.com/,mobile-verified
,,2147339728,micah@micahrich.com,,,,http://cfweldingandfab.com/,mobile-verified
,,6824980505,ecoheavyequipment@gmail.com,,Lake Dallas,Texas,https://ecoheavyequipmentrepair.com/,mobile-verified
,,4698639726,,,,,,mobile-verified
,,7756251525,,,Winnemucca,Nevada,,mobile-verified
Nick,,2142063920,npavey14@gmail.com,ForeverLawn Texas,Richardson,TX,http://www.foreverlawntexas.com/,mobile-verified
,,4699751679,seth@totalgaragesolutions.com,Total Garage Solutions LLC,,,http://totalgaragesolutions.com/%3Futm_source%3Dgoogle-gmb-maps%26utm_medium%3Dgmb-website-button%26utm_campaign%3Dlocl.io%26utm_content%3D98615449-89f6-420c-80f7-3ec143e451a0,mobile-verified
,,2149717665,info@splashpadpoolbuilder.com,Splash Pad Pool Builder,Royse City,TX,https://splashpadpoolbuilder.com/,mobile-verified
Wayne,,4696677426,info@medallionpooldesign.com,Medallion Pools of Texas,McKinney,TX,http://www.medallionpooldesign.com/,mobile-verified
,,9726238361,team@latofonts.com,Southern Seasons Landscaping and Design,Rockwall,TX,https://southernseasonstx.com/,mobile-verified
,,4695719608,mortonpoolsolutions@gmail.com,Morton Pool Solutions / Renovations,Wylie,TX,https://mortonpoolsolutions.com/,mobile-verified
Steve,,8177163095,steve@jcllandscaping.com,JCL Landscape Services,Colleyville,TX,http://jcllandscaping.com/,mobile-verified
,,2145375287,freddie1@freddieamerica.com,Freddie America LLC – Generac & Electrical Solutions,,,https://freddieamerica.com/,mobile-verified
,,5804787055,,Ruben's Mobile RV Services,Wylie,TX,https://rubensmobilervservice.square.site/,mobile-verified
,,2149070047,independentlandscaping18@gmail.com,Independent Landscaping,Royse City,TX,http://www.independentlandscapingtx.com/,mobile-verified
,,4695607202,info@turfanddesign.com,TX Artificial Turf & Design,Rockwall,TX,https://turfanddesign.com/,mobile-verified
,,9724151620,podleskiconstruction@yahoo.com,Podleski Construction,Rockwall,TX,https://podleskilc.com/,mobile-verified
,,7133404342,info@artificialgrasstx.com,Artificial Grass TX,League City,TX,http://artificialgrasstx.com/,mobile-verified
,,4699551262,info@artificialturfmaintenance.com,Artificial Turf Maintenance,,,http://artificialturfmaintenance.com/,mobile-verified
,,4698882824,jericovera145@gmail.com,Vera's Outdoor Solutions LLC,,,https://verasoutdoorsolutions.com/,mobile-verified
,,9725650466,info@turfitall.com,Turf It All,Richardson,TX,http://www.turfitall.com/,mobile-verified
,,4698558022,avatarslandscaping@gmail.com,Avatar Landscaping and Construction,,,https://avatarlandscapingandconstruction.com/,mobile-verified
,,9728166745,josh@fantasticturf.com,Fantastic Turf,Dallas,TX,https://www.fantasticturf.com/,mobile-verified
,,2147666722,ed@clickses.com,Clicks Emergency Services,,,https://clickses.com/%3Fy_source%3D1_MTA0MzM5NzMwOC03MTUtbG9jYXRpb24ud2Vic2l0ZQ%3D%3D,mobile-verified
,,2144660216,Dallasepoxyguys@gmail.com,Epoxy Guys,,,https://www.facebook.com/pg/DallasEpoxyGuys,mobile-verified
,,9728006399,pgsreed@yahoo.com,Pro Grade Services,,,https://progradeservices.com/,mobile-verified
,,4696623600,lwcpstaff@gmail.com,Living Water Custom Pools,Plano,TX,http://livingwatercustompools.com/,mobile-verified
,,3054902168,masterpiececoncrete@hotmail.com,Masterpiece Concrete LLC,,,https://www.masterpiececoncretecompany.com/,mobile-verified
,,9033404382,micah@micahrich.com,Ken Winn the Tool Man Mobile RV Repairs,Forney,TX,https://kenwinnthetoolman.online/,mobile-verified
,,4693073964,brian@custompoolsbybrian.com,Custom Pools By Brian,Nevada,TX,https://www.custompoolsbybrian.com/,mobile-verified
,,2146804653,,Lawn & Golf Turfs of DFW,,,https://lawnandgolfturfs.com/,mobile-verified
,,9723639889,syntheticturfexperts@gmail.com,Synthetic Turf Experts,Frisco,TX,https://syntheticturfexperts.com/,mobile-verified
,,9406414478,info@northtxturf.com,North Texas Turf - Synthetic Turf Supplier | Artificial Turf Installation & Maintenance,,,https://www.northtxturf.com/,mobile-verified
,,2145292134,sales@turfrocks.com,TurfRocks,Anna,TX,http://www.turfrocks.com/,mobile-verified
,,4694633201,mai9026@gmail.com,MG mobile RV repair,Nevada,TX,https://mgmobilervrepair.com/,mobile-verified
,,9034135379,matt@total-turf.com,Total Turf Management LLC,,,http://total-turf.com/,mobile-verified
,,9727775147,info@365customturf.com,365 Custom Turf,Richardson,TX,http://365customturf.com/,mobile-verified
,,2144020027,services@collincountyconcrete.com,Collin County Concrete,Allen,TX,https://collincountyconcrete.com/,mobile-verified
,,9723228643,valorepoxy@gmail.com,Valor Epoxy & Flooring,,,http://valorepoxy.com/,mobile-verified
,,3462186993,service@fergrepair.com,Ferguson Equipment Repair Group LLC,Willis,TX,https://fergrepair.com/%3Futm_source%3DGMB,mobile-verified
,,2144066105,fsermobile@gmail.com,FoRRest Mobile Small Engine Repair LLC,Rockwall,TX,http://fsermobile.com/,mobile-verified
,,2146060727,bids@extremeconcreteconstructionllc.com,Extreme Concrete Construction LLC,Forney,TX,http://www.extremeconcreteconstructionllc.com/,mobile-verified
,,2145660574,octavio@buenavistaconstructions.com,Vista Buena LLC,,,https://vista-buena.com/,mobile-verified
,,2143645008,info@txcrs.com,Concrete Resurfacing Specialist,,,https://txcrs.com/,mobile-verified
,,9034221274,mike@mikesmobilerepairtx.com,Mike's Mobile Garage,Melissa,TX,http://www.mikesmobilerepairtx.com/,mobile-verified
,,4698971241,ontargetmobilerepair@gmail.com,On Target Mobile Repair LLC,,,https://www.ontargetmobilerepair.com/,mobile-verified
,,4699700462,,First Response Mobile Trailer Repair,,,https://www.firstresponsetrailer.com/,mobile-verified
,,2144587998,txbluelinepools@gmail.com,TX Blue Line Pools,,,http://www.txbluelinepools.com/,mobile-verified
,,4695090998,contact@14kwaterplay.com,14K Water Play,,,http://14kwaterplay.com/,mobile-verified
,,2143846828,info@restorenow.pro,RestoreNow Property Restoration,Nevada,TX,http://www.restorenow.pro/,mobile-verified
,,4692681493,triplemhvacsolutions@gmail.com,Triple M Heating & Air Solutions LLC,,,https://www.triplemairsolutions.com/,mobile-verified
,,2149087432,joseph@tcctex.com,"TCC Construction Co, LLC (Rockwall)",Rockwall,TX,http://www.tcctex.com/home/rockwall-location/,mobile-verified
,,2143254349,info@repairprousa.com,Medical Equipment Repair,Allen,TX,http://www.repairprousa.com/,mobile-verified
,,9034135063,info@roltexconcretellc.com,Roltex Concrete LLC - Driveways & Concrete Pouring Services,,,http://www.roltexconcretellc.com/,mobile-verified
,,2142803264,micah@micahrich.com,T.X. Steele,Caddo Mills,TX,http://txsteele.com/,mobile-verified
,,4694949120,aulloa@txpoolconstruction.com,TX Pool & Construction,Dallas,TX,https://txpoolconstruction.com/,mobile-verified
,,2149237909,agustinamingote@gmail.com,Creative Pools Rockwall,,,https://creativepoolsrockwall.com/,mobile-verified
,,2146413727,brad@lonestarturf.com,Turf Solutions,,,http://www.lonestarturf.com/,mobile-verified
,,4692307895,contact@turfgreenlawn.net,Turf Green Lawn Care,Nevada,TX,http://turfgreenlawn.net/,mobile-verified
,,2147533040,Ntxturfdesign@gmail.com,DFW Turf & Design LLC,,,https://www.facebook.com/profile.php%3Fid%3D61555486511097%26mibextid%3DLQQJ4d,mobile-verified
,,4696688026,jorgeb@apexturfandoutdoor.com,Apex Turf & Outdoor Design Llc,,,http://apexturfandoutdoor.com/,mobile-verified
,,2144994034,matt@tx-turf.com,"TX Turf & Outdoor, LLC",McKinney,TX,https://tx-turf.com/,mobile-verified
,,9729793885,lascolinaspools@gmail.com,Las Colinas Pools & Spas,Plano,TX,https://lascolinaspools.com/,mobile-verified
,,9453415177,artpoolsvc@gmail.com,ART Pool Service,,,https://www.artpoolservice.com/,mobile-verified
,,5516973309,hudsonepoxyflooring@gmail.com,Hudson Epoxy Flooring LLC,Bayonne,NJ,https://hudsonepoxyflooring.com/,mobile-verified
,,4696931017,epoxyfloored@yahoo.com,Epoxy Floored,Melissa,TX,https://epoxyfloored.com/,mobile-verified
,,4699903335,support@webador.com,NTX Landscaping & Design,,,https://www.ntxlandscapingdesign.com/,mobile-verified
,,9729553214,team@latofonts.com,Merit Construction NTX,,,https://meritconstruction.net/,mobile-verified
,,2147150861,sasconcreteservices@gmail.com,SAS CONCRETE SERVICES,,,http://facebook.com/sasconcreteservices,mobile-verified
,,4693387666,cesar.b@jckcorporate.net,JCK Concrete Inc.,Royse City,TX,http://www.jckconcrete.net/,mobile-verified
,,2146329408,john@customconcretetx.net,Custom Concrete & Construction,,,https://www.customconcretetx.net/,mobile-verified
,,4693383507,alphonso@bluelinepoolandpatio.com,Blue Line Pool & Patio,,,http://www.bluelinepoolandpatio.com/,mobile-verified
,,9725238259,linwade@sbcglobal.net,Rubber Ducky Pools,Forney,TX,http://www.rubberduckypools.co/,mobile-verified
,,4697743800,info@yfspools.com,Five Stars Pools & Remodeling,Rockwall,TX,https://www.yourfivestarpools.com/contacts.html,mobile-verified
,,9728801209,,Custom Design Pools,Sachse,TX,http://www.customdesignpools4u.com/,mobile-verified
,,3475497079,jssteelandhomeconstruction@gmail.com,J&S Steel and Home Construction LLC,,,https://www.brooklynnyhandyman.com/,mobile-verified
,,4697454163,truworxservices@gmail.com,Truworx Concrete Services,,,https://www.truworxservices.com/,mobile-verified
,,9403912562,,DFW Truck Repair,Caddo Mills,TX,,mobile-verified
,,6156427461,,HONEST MOBILE MECHANICS,Royse City,TX,,mobile-verified
,,9038699058,,Hare Heavy Equipment Services,Fate,TX,http://hareservices.net/,mobile-verified
,,9728768163,,The Planted Stone Landscape & Hardscape,Wylie,TX,,mobile-verified
,,4694505983,,Casebolt Mobile RV,Rowlett,TX,,mobile-verified
,,4696018771,,Kidd's Exterior Solutions,,,,mobile-verified
,,9402975462,,J-O-D ELECTRICAL,,,,mobile-verified
,,4698653662,,ProLine Equipment,,,,mobile-verified
,,2146367570,,C Level Excavation,,,,mobile-verified
,,4699998547,8bconcrete@gmail.com,8 brother’s Concrete construction,Royse City,TX,,mobile-verified
,,4699013474,,Wylie Truck & Trailer Repair,Wylie,TX,,mobile-verified
,,4699616497,,NB TRUCK AND TRAILER REPAIR,,,,mobile-verified
,,2145006924,,Wylie concrete repairs,,,,mobile-verified
,,2149459281,office@texasturfprofessionals.com,Texas Turf Professionals,,,https://texasturfprofessionals.com/,mobile-verified
,,2145421321,dave@lab6.com,Riley Equipment Service LLC,Forney,TX,http://rileyequipmentservice.com/,mobile-verified
Bud,,9728321750,bseaman@drcwalls.net,DRC Retaining Walls,McKinney,TX,https://drcwalls.net/,mobile-verified
,,2145666410,,Abide Electric,,,https://www.abideelectric.net/,mobile-verified
,,6822498097,rental@iron-hub.com,Iron Hub Field Solutions,Royse City,TX,https://www.iron-hub.com/,mobile-verified
,,5417785603,franciscochaparro0925@gmail.com,Evolution Construction Concrete LLC,,,http://estradaconstructiontx.com/,mobile-verified
,,4698678816,,Delgado's & Sons Enterprises,,,,mobile-verified
,,9729224246,,Pro pool and spa service,,,,mobile-verified
,,9722145814,,Zuniga Concrete - Residential & Commercial Concrete,,,,mobile-verified
,,9727044153,,Equipment Services,Greenville,TX,,mobile-verified
,,9728989483,customerservice@talentconstruction.net,talent construction,,,http://talentconstruction.net/,mobile-verified
,,2144374020,rvilefort@yahoo.com,,,,http://www.vilefortconstructions.com/,mobile-verified
Stephanie,,9723452141,steph@stewartconcepts.net,stephanie stewart,,,https://stewartconcepts.net/,mobile-verified
,,9405952475,,,Caddo Mills,Texas,https://www.valorgeneralcontractors.com/%3Futm_source%3Dgoogle%26utm_medium%3Dwix_google_business_profile%26utm_campaign%3D15496238557907679667,mobile-verified
,,9034560441,duane_fulton@verizon.net,,Caddo Mills,Texas,https://m.facebook.com/fultonconstruction/,mobile-verified
,,2142541058,,,,,https://hillkitchenandbathroomstx.com/,mobile-verified
,,2145169315,contact@specialistroofing.net,specialist roofing llc,,,https://specialistroofing.net/,mobile-verified
,,2146747909,juanillojlm@yahoo.com,,,,http://jlmcontractorsllc.com/,mobile-verified
,,2147141147,info@blackhouseconstruction.com,,,,https://www.blackhouseconstruction.com/,mobile-verified
