First Name,Last Name,Phone,Email,Company Name,City,State,Website,Tags
,,4694878323,Contact@romaserviceshvac.com,Roma services HVAC,,,http://www.romaserviceshvac.com/,
Helping,Home,2143047658,,Metro Air Conditioning Heating & Services,,,https://www.metroacs.com/,
Senior,Vice,2147427252,WatsonFae@salaair.com,Sala Air Conditioning,,,https://salaair.com/,
,,9727715987,,Appliance & Air Care Experts,,,https://www.applianceandaircare.com/?utm_source=google&utm_medium=organic&utm_campaign=gbp,
,,9722847332,,Coolinary Arts Heating & Cooling,,,https://callcoolinaryarts.com/?utm_source=google&utm_medium=gbp&utm_campaign=Dallas,
,,2149237904,gilbert@jadeair.net,Jade Air,,,http://jadeair.net/,
,,8175001523,info@anmairconditioningheating.com,A & M Air Conditioning and Heating,,,https://anmairconditioningheating.com/,
,,6822140431,,Top Gun Heating & AC Repair,,,https://topgunairtx.com/keller-heating-services/?utm_source=google&utm_medium=organic&utm_campaign=gbp_keller,
,,8178017084,info@ftwmg.com,Fort Worth Mechanical Group,,,http://www.fortworthmechanicalgroup.com/,
,,8172415893,,Service Experts Fort Worth,,,https://www.serviceexperts.com/fort-worth-tx/?&utm_campaign=listing&utm_medium=organic_search&utm_source=gmb&utm_content=brand,
,,9725042079,,Temp Pro Mechanical,,,https://temppromechanical.com/?utm_campaign=gmb,
,,9459987066,,Unlimited Air Conditioning and Heating,,,https://unlimitedairandheating.com/,
,,6827031242,,ServicePro DFW - HVAC,,,https://serviceprodfw.com/,
,,8174763051,,Sunny Service,,,https://www.sunnyservice.com/?utm_source=GMB&utm_medium=local,
,,8178358658,,"Comfort Land Heating, Cooling, & Plumbing",,,https://callcomfortland.com/?utm_source=gbp&utm_medium=organic,
,,8173827088,,Seal Heating and Air Conditioning,,,http://www.sealheatingandairconditioning.com/,
Why,Home,8172007215,,Prestige Air,,,http://prestigeairtx.com/,
Jeff,Gossett,8174388576,,Texas Air Doctors,,,http://www.texasairdoctors.com/,
Mechanical,Company,9722013253,info@rescueairtx.com,Rescue Air and Plumbing,,,https://www.rescueairtx.com/,
As,Operations,2145268533,customerservice@quigleyac.com,Quigley Heating & Air Conditioning of Dallas,,,https://quigleyac.com/?utm_source=google+business+listing&utm_medium=organic&utm_campaign=click+to+website,
,,8173951200,,R-10 Heat & Air,,,https://www.r10heatandair.com/?utm_source=GMBlisting&utm_medium=organic,
,,8178745513,Service@TexasDiscountAir.com,Texas Discount Air,,,http://www.texasdiscountair.com/,
,,8178000340,,Fort Worth Heat and Air,,,https://www.fortworthheatandair.com/,
President,And,8175350881,info@webbair.com,Webb Air Heating & Cooling,,,https://webbair.com/?utm_source=google&utm_medium=organic&utm_campaign=gbp,
,,9726197607,,Service Experts Dallas,,,https://www.serviceexperts.com/dallas-tx/?&utm_campaign=listing&utm_medium=organic_search&utm_source=gmb&utm_content=brand,
,,8176783622,,Fort Worth Heating and Air Conditioning,,,,
,,8177665706,customerservice@onehourair.com,One Hour Air Conditioning & Heating,,,https://www.onehourairftworth.com/?utm_source=organic&utm_medium=gbp,
,,4697225425,info@atlasacrepair.com,Atlas AC Repair LLC,,,https://atlasacrepair.com/,
