First Name,Last Name,Phone,Email,Company Name,City,State,Website,Tags
Electrical,Home,9722928831,,No Sweat Experts,,,https://nosweatexperts.com/,
,,8178629856,,"Breeze Air, Heat & Electrical",,,https://breezeairandheat.com/,
Family,Owned,9722787111,,"Astar Air Conditioning, Plumbing & Electric",,,https://astardfw.com/,
,,2142146922,,Tiger Air,,,http://www.tigerairtx.com/?utm_source=google&utm_medium=organic&utm_campaign=gbp,
,,8174023048,,Made New Air Conditioning & Heating Inc,,,https://www.madenewair.com/,
,,2145566792,airtrondataprivacy@resservices.com,Airtron Heating & Air Conditioning,,,https://airtron.com/dallas/?utm_source=gmb&utm_medium=gmb-organic&utm_campaign=gmb-dallas,
Area,Home,4699211136,info@proactiveairconditioning.com,Proactive Air Conditioning,,,https://proactiveairconditioning.com/,
,,4692681493,triplemhvacsolutions@gmail.com,,,,https://www.triplemairsolutions.com/,
,,9722147002,jorge@mondragonac.com,Mondragon Mechanical LLC,,,https://mondragonac.com/,
,,8176703144,,North Tarrant Heating & Air Conditioning LLC,,,https://www.northtarrantac.com/?utm_campaign=gmb,
,,8176189916,,"AirCo Air Conditioning, Heating and Plumbing",,,https://www.airco.com/?utm_source=google&utm_medium=organic&utm_campaign=GMBListing-Fort-Worth-TX,
,,8177753295,,Houk Air Conditioning DFW,,,https://houkac.com/service-areas/dallas-fort-worth/?utm_source=gbp&utm_medium=organic,
New,Home,9728489414,,5 Star HVAC Contractors,,,https://5starhvaccontractors.com/,
,,8178371095,,A Better Deal Heating and Air Conditioning Inc,,,http://abdetterdealinc.com/,
Oscar,Installation,9724026198,,"Harlen Johnson Heating, Air & Plumbing",,,https://hjac.com/?utm_campaign=gmb,
,,,,"A/C Rescue, Inc.",,,https://acrescue.net/,
,,6823243936,,"Silver Spur Air, Heating, & Plumbing of DFW",,,https://silverspurhome.com/?utm_source=google&utm_medium=organic&utm_campaign=gbp-DFW,
Some,Home,6823270948,,One Hour Air Conditioning & Heating of Dallas,,,https://www.onehourairdallas.com/?utm_source=organic&utm_medium=gbp,
Harried,Home,2143248811,,"Baker Brothers Plumbing, Air & Electric",,,https://bakerbrothersplumbing.com/?utm_campaign=gmb_bk-msq_home_everyone_gmb-mesquite&utm_medium=gmb&utm_source=google,
,,8173415160,,AC Genius AC Repair & Service,,,http://www.acgenius.com/,
,,8172647732,,Air Worth Heating & Cooling,,,https://airworthac.com/haltom-city/,
,,2148318061,,Dallas Heating and Air Conditioning,,,https://www.dallasheatingac.com/?utm_source=GMB&utm_medium=Website&utm_campaign=Addison,
,,6823460054,infinityac.heat@gmail.com,Infinity Air Conditioning & Heating LLC,,,http://www.hvacinfinity.com/,
,,8178887313,,Prime Time Heating And Air LLC,,,https://primetime-tx.com/?utm_source=google&utm_medium=organic&utm_campaign=gbp,
,,8178313950,,Reliant Air Conditioning,,,https://reliantairconditioning.com/?utm_source=google&utm_medium=gmb&utm_campaign=zA501-Organic&se_campaign=zA501-Organic,
,,4699496194,sales@airreydfw.com,Air Rey Service,,,https://www.airreyservice.com/,
,,8178393511,,Fix My Air DFW AC Repair Fort Worth,,,https://www.hvacrepairfortworth.com/,
Randy,Cody,2148949629,,"Cody & Sons Plumbing, Heating & Air",,,https://codyandsons.com/?utm_source=google&utm_medium=organic&utm_campaign=GMBListing-Dallas-TX,
